
; EXECUTABLE_BLOCK_START
M73 P0 R57

G90
G21
M83 ; use relative distances for extrusion
; filament start gcode
M106 S0



;AFTER_LAYER_CHANGE
;7
;_SET_FAN_SPEED_CHANGING_LAYER
; printing object Voron_Design_Cube_v7.drc id:0 copy 0
G1 E-.8 F1500
G1 X109.038 Y105.647 Z7 F9000
G1 E.8 F1500
;TYPE:Inner wall
;WIDTH:0.459999
G1 F5932.273
G1 X109.165 Y105.572 E.00497
G1 X110.285 Y105.144 E.04033
G1 X111.146 Y104.936 E.0298
G1 X112.067 Y104.824 E.0312
G1 X113.272 Y104.857 E.04058
G1 X114.153 Y104.996 E.02999
G1 X115.05 Y105.247 E.03133
G1 X116.22 Y105.77 E.04313
G1 X117.221 Y106.439 E.0405
G1 X117.893 Y107.026 E.02999
G1 X118.471 Y107.663 E.02897
G1 X118.975 Y108.362 E.02899
G1 X119.564 Y109.48 E.04249
G1 X119.868 Y110.317 E.02994
G1 X120.082 Y111.223 E.03133
G1 X120.182 Y112.413 E.04018
G1 X120.142 Y113.302 E.02994
G1 X119.993 Y114.222 E.03133
G1 X119.63 Y115.359 E.04018
G1 X119.254 Y116.166 E.02994
G1 X118.801 Y116.899 E.02899
G1 X118.268 Y117.577 E.02899
G1 X117.664 Y118.191 E.02899
G1 X116.994 Y118.733 E.02899
G1 X115.835 Y119.428 E.04547
G1 X114.715 Y119.856 E.04033
G1 X113.788 Y120.08 E.03209
G1 X112.588 Y120.182 E.04052
G1 X111.698 Y120.142 E.02996
G1 X110.847 Y120.004 E.029
G1 X110.017 Y119.772 E.02899
G1 X109.219 Y119.448 E.02899
G1 X108.4 Y119.004 E.03133
G1 X107.376 Y118.233 E.04314
G1 X106.548 Y117.358 E.04052
G1 X106.025 Y116.638 E.02994
G1 X105.436 Y115.52 E.04249
G1 X105.132 Y114.683 E.02994
G1 X104.934 Y113.845 E.02899
G1 X104.831 Y112.989 E.02899
G1 X104.825 Y112.128 E.02899
G1 X104.922 Y111.201 E.03133
G1 X105.22 Y110.045 E.04018
G1 X105.552 Y109.219 E.02994
G1 X105.882 Y108.608 E.02337
G1 X106.042 Y108.339 E.01053
G1 X106.714 Y107.446 E.03759
G1 X107.336 Y106.809 E.02994
G1 X108.06 Y106.223 E.03133
G1 X109.003 Y105.667 E.03684
G1 X109.249 Y106.006 F9000
G1 F5932.273
G1 X109.346 Y105.949 E.00379
G1 X110.434 Y105.533 E.03915
G1 X111.239 Y105.343 E.02785
G1 X112.087 Y105.242 E.02873
G1 X113.261 Y105.273 E.03951
G1 X114.083 Y105.407 E.02801
G1 X114.908 Y105.64 E.02885
G1 X116.018 Y106.137 E.04089
G1 X116.989 Y106.786 E.03932
G1 X117.615 Y107.337 E.02803
G1 X118.16 Y107.941 E.0274
G1 X118.635 Y108.604 E.02742
G1 X119.193 Y109.671 E.04053
G1 X119.474 Y110.454 E.02798
G1 X119.669 Y111.289 E.02885
G1 X119.766 Y112.448 E.03911
G1 X119.726 Y113.279 E.02798
G1 X119.586 Y114.125 E.02885
G1 X119.233 Y115.233 E.03911
G1 X118.878 Y115.985 E.02798
G1 X118.447 Y116.677 E.02742
G1 X117.942 Y117.317 E.02742
G1 X117.369 Y117.896 E.02742
G1 X116.734 Y118.407 E.02742
G1 X115.654 Y119.051 E.04232
G1 X114.566 Y119.467 E.03915
G1 X113.72 Y119.667 E.02926
G1 X112.552 Y119.766 E.03942
G1 X111.721 Y119.726 E.02799
G1 X110.917 Y119.593 E.02743
G1 X110.133 Y119.371 E.02742
G1 X109.378 Y119.063 E.02742
G1 X108.626 Y118.652 E.02885
G1 X107.655 Y117.921 E.04089
G1 X106.851 Y117.071 E.03934
G1 X106.365 Y116.396 E.02798
G1 X105.807 Y115.329 E.04053
G1 X105.526 Y114.546 E.02798
G1 X105.341 Y113.752 E.02742
G1 X105.246 Y112.943 E.02742
G1 X105.242 Y112.128 E.02742
G1 X105.334 Y111.275 E.02885
G1 X105.624 Y110.149 E.03911
G1 X105.937 Y109.378 E.02798
G1 X106.349 Y108.625 E.0289
M73 P20 R46
G1 X107.047 Y107.697 E.03906
G1 X107.631 Y107.104 E.02798
G1 X108.299 Y106.566 E.02885
G1 X109.215 Y106.026 E.03577
G1 X109.472 Y106.384 F9000
;TYPE:Outer wall
G1 F5932.273
G1 X109.537 Y106.345 E.00255
G1 X110.59 Y105.943 E.03791
G1 X111.337 Y105.77 E.0258
G1 X112.107 Y105.681 E.02608
G1 X113.249 Y105.712 E.03842
G1 X114.01 Y105.839 E.02593
G1 X114.758 Y106.054 E.0262
G1 X115.805 Y106.522 E.03856
G1 X116.746 Y107.151 E.03807
G1 X117.322 Y107.664 E.02596
G1 X117.833 Y108.234 E.02574
G1 X118.277 Y108.857 E.02576
G1 X118.804 Y109.873 E.03847
G1 X119.06 Y110.599 E.02592
G1 X119.234 Y111.358 E.0262
G1 X119.329 Y112.485 E.03803
G1 X119.288 Y113.254 E.02592
G1 X119.159 Y114.022 E.0262
G1 X118.815 Y115.1 E.03803
G1 X118.483 Y115.795 E.02592
G1 X118.076 Y116.444 E.02576
G1 X117.6 Y117.043 E.02577
G1 X117.059 Y117.586 E.02576
G1 X116.461 Y118.064 E.02577
G1 X115.463 Y118.655 E.03902
G1 X114.41 Y119.057 E.03791
G1 X113.65 Y119.233 E.02623
G1 X112.515 Y119.329 E.03832
G1 X111.746 Y119.288 E.02591
G1 X110.99 Y119.161 E.02577
G1 X110.254 Y118.95 E.02577
G1 X109.546 Y118.658 E.02576
G1 X108.864 Y118.282 E.0262
G1 X107.948 Y117.593 E.03856
G1 X107.17 Y116.77 E.0381
G1 X106.723 Y116.143 E.02592
G1 X106.196 Y115.127 E.03847
G1 X105.94 Y114.401 E.02592
G1 X105.768 Y113.654 E.02576
G1 X105.682 Y112.893 E.02577
G1 X105.68 Y112.128 E.02576
G1 X105.766 Y111.353 E.0262
G1 X106.049 Y110.259 E.03803
G1 X106.342 Y109.546 E.02592
G1 X106.718 Y108.864 E.02621
G1 X107.398 Y107.961 E.03803
G1 X107.941 Y107.414 E.02592
G1 X108.549 Y106.928 E.0262
G1 X109.438 Y106.404 E.03469
G1 E-.8 F1500
G1 X124.441 Y103.136 F9000
G1 E.8 F1500
;TYPE:Inner wall
G1 F5932.273
G1 X124.414 Y103.283 E.00502
G1 X124.414 Y104.107 E.02773
G1 X124.447 Y104.481 E.01262
G1 X124.561 Y104.756 E.01002
G1 X124.786 Y105.022 E.0117
G1 X125.053 Y105.185 E.01053
G1 X125.457 Y105.266 E.01388
G1 X126.414 Y105.266 E.0322
G1 X126.414 Y106.441 E.0395
G1 X125.457 Y106.441 E.0322
G1 X125.053 Y106.522 E.01388
G1 X124.786 Y106.685 E.01053
G1 X124.64 Y106.836 E.00705
G1 X124.488 Y107.099 E.01023
G1 X124.414 Y107.483 E.01315
G1 X124.414 Y117.344 E.33171
G1 X124.433 Y117.956 E.02059
G1 X124.567 Y118.302 E.01249
G1 X124.819 Y118.583 E.0127
G1 X125.126 Y118.747 E.01172
G1 X125.457 Y118.801 E.01127
G1 X126.414 Y118.801 E.0322
G1 X126.414 Y124.53 E.19271
;WIDTH:0.506539
G1 F5336.771
G1 X126.391 Y124.839 E.01159
;WIDTH:0.553079
G1 F4849.919
G1 X126.368 Y125.148 E.01275
;WIDTH:0.599618
G1 F4444.468
G1 X126.345 Y125.457 E.01392
G1 X126.345 Y126.345 E.03985
G1 X125.788 Y126.345 E.025
G1 X125.788 Y125.457 E.03985
G1 X125.695 Y125.249 E.01025
;WIDTH:0.553079
G1 F4849.919
G1 X125.602 Y125.04 E.00939
;WIDTH:0.506539
G1 F5336.771
G1 X125.51 Y124.831 E.00853
;WIDTH:0.459999
G1 F5932.273
G1 X125.076 Y124.495 E.01846
G1 X124.675 Y124.414 E.01376
G1 X123.476 Y124.437 E.04034
G1 X123.134 Y124.576 E.01242
G1 X122.874 Y124.81 E.01179
G1 X122.795 Y125.037 E.00809
G1 X122.715 Y124.81 E.00809
G1 X122.455 Y124.576 E.01179
G1 X122.212 Y124.463 E.00901
G1 X121.898 Y124.414 E.01069
G1 X120.819 Y124.426 E.03628
G1 X120.543 Y124.509 E.00969
G1 X120.215 Y124.746 E.01363
G1 X120.004 Y125.082 E.01336
G1 X119.934 Y125.457 E.01282
G1 X119.934 Y126.414 E.0322
G1 X98.586 Y126.414 E.71816
G1 X98.586 Y118.559 E.26424
G1 X99.543 Y118.559 E.0322
G1 X99.871 Y118.507 E.01116
G1 X100.08 Y118.41 E.00777
G1 X100.302 Y118.231 E.00959
G1 X100.506 Y117.916 E.01265
G1 X100.586 Y117.517 E.01368
G1 X100.579 Y107.122 E.34968
G1 X100.452 Y106.731 E.01383
G1 X100.204 Y106.435 E.01297
G1 X99.862 Y106.249 E.01313
G1 X99.543 Y106.199 E.01085
G1 X98.586 Y106.199 E.0322
G1 X98.586 Y98.586 E.2561
G1 X125.457 Y98.581 E.90395
;WIDTH:0.450521
G1 F6070.217
G1 X126.419 Y98.581 E.03163
G1 X126.419 Y98.988 E.0134
G1 X126.215 Y98.988 E.0067
;WIDTH:0.45993
G1 F5933.255
G1 X125.277 Y98.999 E.03156
G1 X124.831 Y99.192 E.01633
G1 X124.495 Y99.625 E.01846
G1 X124.414 Y100.026 E.01376
G1 X124.414 Y101.022 E.03348
G1 X124.446 Y101.278 E.00867
G1 X124.627 Y101.652 E.01398
G1 X124.883 Y101.893 E.01183
;WIDTH:0.506122
G1 F5341.575
G1 X125.002 Y101.958 E.00505
;WIDTH:0.552245
G1 F4857.86
G1 X125.121 Y102.022 E.00556
;WIDTH:0.598368
G1 F4454.477
G1 X125.239 Y102.087 E.00606
;WIDTH:0.64449
G1 F4112.949
G1 X125.358 Y102.152 E.00656
G1 X125.239 Y102.217 E.00656
;WIDTH:0.598368
G1 F4454.477
G1 X125.121 Y102.282 E.00606
;WIDTH:0.552245
G1 F4857.86
G1 X125.002 Y102.347 E.00556
;WIDTH:0.506122
G1 F5341.575
G1 X124.883 Y102.412 E.00505
;WIDTH:0.459999
G1 F5932.273
G1 X124.627 Y102.653 E.01184
G1 X124.482 Y102.913 E.01002
G1 X124.449 Y103.097 E.00628
G1 X124.85 Y103.223 F9000
G1 F5932.273
G1 X124.831 Y103.362 E.00473
G1 X124.851 Y104.378 E.0342
G1 X124.967 Y104.612 E.00879
G1 X125.214 Y104.8 E.01047
G1 X125.457 Y104.849 E.00833
G1 X126.831 Y104.849 E.04623
G1 X126.831 Y106.858 E.06756
G1 X125.457 Y106.858 E.04623
G1 X125.214 Y106.907 E.00833
G1 X125.054 Y107.005 E.00632
G1 X124.892 Y107.215 E.00893
G1 X124.831 Y107.483 E.00926
G1 X124.843 Y117.877 E.34964
G1 X124.923 Y118.085 E.0075
G1 X125.132 Y118.293 E.00993
G1 X125.457 Y118.384 E.01135
G1 X126.831 Y118.384 E.04623
G1 X126.831 Y126.831 E.28416
G1 X125.301 Y126.831 E.05148
G1 X125.301 Y125.457 E.04623
G1 X125.176 Y125.082 E.01331
G1 X124.916 Y124.88 E.01108
G1 X124.675 Y124.831 E.00825
G1 X123.691 Y124.831 E.03311
G1 X123.448 Y124.881 E.00834
G1 X123.201 Y125.069 E.01047
;WIDTH:0.491268
G1 F5518.541
G1 X123.117 Y125.263 E.00764
;WIDTH:0.522537
G1 F5158.755
G1 X123.034 Y125.457 E.00817
G1 X123.034 Y126.8 E.05196
G1 X122.555 Y126.8 E.01855
G1 X122.555 Y125.457 E.05196
G1 X122.472 Y125.263 E.00817
;WIDTH:0.491268
G1 F5518.541
G1 X122.388 Y125.069 E.00764
;WIDTH:0.459999
G1 F5932.273
G1 X122.141 Y124.881 E.01047
G1 X121.898 Y124.831 E.00834
G1 X120.848 Y124.845 E.03531
G1 X120.571 Y124.981 E.01041
G1 X120.393 Y125.232 E.01035
G1 X120.351 Y125.457 E.00769
G1 X120.351 Y126.831 E.04623
G1 X98.169 Y126.831 E.74622
G1 X98.169 Y118.142 E.2923
G1 X99.543 Y118.142 E.04623
G1 X99.739 Y118.111 E.0067
G1 X99.946 Y117.995 E.00798
G1 X100.102 Y117.798 E.00844
G1 X100.169 Y117.517 E.00971
G1 X100.164 Y107.17 E.34808
G1 X100.067 Y106.899 E.00967
G1 X99.859 Y106.701 E.00967
G1 X99.543 Y106.616 E.011
G1 X98.169 Y106.616 E.04623
G1 X98.169 Y98.169 E.28416
G1 X126.831 Y98.169 E.96422
G1 X126.831 Y99.401 E.04145
G1 X125.349 Y99.41 E.04987
G1 X125.082 Y99.526 E.0098
G1 X124.88 Y99.786 E.01107
G1 X124.831 Y100.026 E.00825
G1 X124.831 Y101.022 E.03348
G1 X124.899 Y101.304 E.00977
G1 X125.113 Y101.544 E.01082
G1 X125.457 Y101.647 E.01209
G1 X126.831 Y101.647 E.04623
G1 X126.831 Y102.657 E.03398
G1 X125.457 Y102.657 E.04623
G1 X125.113 Y102.761 E.01209
G1 X124.959 Y102.905 E.0071
G1 X124.872 Y103.061 E.00601
G1 X124.856 Y103.183 E.00414
G1 X125.27 Y103.283 F9000

