M83 ; use relative distances for extrusion
;AFTER_LAYER_CHANGE
;1
;_SET_FAN_SPEED_CHANGING_LAYER
; printing object Voron_Design_Cube_v7.drc id:0 copy 0
G1 E-.8 F1500
G1 X121.95 Y126.414 F9000
G1 E.8 F1500
;TYPE:Inner wall
;WIDTH:0.459999
G1 F5932.273
G1 X103.05 Y126.414 E.63581
G1 X98.586 Y121.95 E.21237
G1 X98.586 Y103.05 E.63581
G1 X103.05 Y98.586 E.21237
G1 X121.95 Y98.586 E.63581
G1 X126.414 Y103.05 E.21237
G1 X126.414 Y121.95 E.63581
G1 X121.979 Y126.386 E.21103
G1 X122.123 Y126.831 F9000
G1 F5932.273
G1 X102.877 Y126.831 E.64744
G1 X98.169 Y122.123 E.224
G1 X98.169 Y102.877 E.64744
G1 X102.877 Y98.169 E.224
G1 X122.123 Y98.169 E.64744
G1 X126.831 Y102.877 E.224
G1 X126.831 Y122.123 E.64744
G1 X122.151 Y126.803 E.22265
G1 X122.297 Y127.27 F9000
;TYPE:Outer wall
G1 F5040
G1 X121.471 Y127.27 E.02779
G1 F5932.273
G1 X103.527 Y127.27 E.60363
G1 F4860
G1 X102.695 Y127.27 E.02799
G1 X102.107 Y126.682 E.02797
G1 X98.318 Y122.893 E.18026
G1 X97.73 Y122.305 E.02797
G1 X97.73 Y121.473 E.02799
G1 F5932.273
G1 X97.73 Y103.527 E.6037
G1 F4860
G1 X97.73 Y102.695 E.02799
G1 X98.318 Y102.107 E.02797
G1 X102.107 Y98.318 E.18026
G1 X102.695 Y97.73 E.02797
G1 X103.527 Y97.73 E.02799
G1 F5932.273
G1 X121.473 Y97.73 E.6037
G1 F4860
G1 X122.305 Y97.73 E.02799
G1 X122.893 Y98.318 E.02797
G1 X126.682 Y102.107 E.18026
G1 X127.27 Y102.695 E.02797
G1 X127.27 Y103.527 E.02799
G1 F5932.273
G1 X127.27 Y121.473 E.6037
G1 F4860
G1 X127.27 Y122.305 E.02799
G1 X126.682 Y122.893 E.02797
G1 X122.916 Y126.659 E.17916
G1 X122.328 Y127.247 E.02797
G1 E-.8 F1500
G1 X108.419 Y104.791 F9000
G1 E.8 F1500
;TYPE:Inner wall
G1 F5932.273
G1 X108.822 Y104.577 E.01534
G1 X109.664 Y104.239 E.0305
G1 X110.535 Y103.989 E.0305
G1 X111.428 Y103.832 E.03049
G1 X112.039 Y103.779 E.02063
G1 X112.791 Y103.77 E.0253
G1 X113.689 Y103.847 E.03034
G1 X114.58 Y104.017 E.0305
G1 X115.448 Y104.278 E.0305
G1 X116.285 Y104.628 E.0305
G1 X117.08 Y105.063 E.0305
G1 X117.827 Y105.578 E.0305
G1 X118.516 Y106.167 E.0305
G1 X119.14 Y106.825 E.0305
G1 X119.692 Y107.544 E.0305
G1 X120.167 Y108.316 E.0305
G1 X120.56 Y109.134 E.0305
G1 X120.865 Y109.987 E.03049
G1 X121.02 Y110.581 E.02063
G1 X121.155 Y111.32 E.0253
G1 X121.23 Y112.219 E.03034
G1 X121.212 Y113.126 E.0305
G1 X121.1 Y114.025 E.0305
G1 X120.896 Y114.909 E.0305
G1 X120.601 Y115.766 E.0305
G1 X120.191 Y116.647 E.03268
G1 X119.505 Y117.714 E.04268
G1 X118.91 Y118.433 E.03139
G1 X118.261 Y119.065 E.0305
G1 X117.549 Y119.627 E.0305
G1 X116.728 Y120.147 E.03268
G1 X115.574 Y120.674 E.04268
G1 X114.685 Y120.957 E.03139
G1 X113.797 Y121.138 E.0305
G1 X112.894 Y121.226 E.0305
G1 X111.987 Y121.219 E.0305
G1 X111.086 Y121.119 E.0305
G1 X110.2 Y120.926 E.0305
G1 X109.339 Y120.642 E.0305
G1 X108.512 Y120.271 E.0305
G1 X107.728 Y119.816 E.0305
G1 X106.671 Y119.003 E.04484
G1 X106.01 Y118.345 E.03138
G1 X105.608 Y117.852 E.0214
G1 X104.944 Y116.882 E.03956
G1 X104.656 Y116.34 E.02063
G1 X104.354 Y115.651 E.0253
G1 X104.072 Y114.795 E.03034
G1 X103.88 Y113.909 E.0305
G1 X103.78 Y113.007 E.0305
G1 X103.775 Y112.101 E.0305
G1 X103.863 Y111.198 E.0305
G1 X104.045 Y110.31 E.0305
G1 X104.317 Y109.445 E.0305
G1 X104.678 Y108.614 E.03049
G1 X104.971 Y108.075 E.02063
G1 X105.378 Y107.443 E.0253
G1 X105.938 Y106.736 E.03034
G1 X106.571 Y106.086 E.0305
G1 X107.186 Y105.573 E.02695
G1 X108.021 Y105.001 E.03404
G1 X108.384 Y104.809 E.01382
G1 X108.616 Y105.158 F9000
G1 F5932.273
G1 X109.015 Y104.947 E.01518
G1 X109.817 Y104.627 E.02905
G1 X110.648 Y104.391 E.02905
G1 X111.498 Y104.243 E.02904
G1 X112.072 Y104.195 E.01937
G1 X112.794 Y104.187 E.02431
G1 X113.652 Y104.262 E.02895
G1 X114.499 Y104.426 E.02905
G1 X115.326 Y104.677 E.02905
G1 X116.121 Y105.012 E.02905
G1 X116.878 Y105.428 E.02905
G1 X117.588 Y105.92 E.02905
G1 X118.242 Y106.483 E.02905
G1 X118.835 Y107.11 E.02905
G1 X119.36 Y107.796 E.02905
G1 X119.811 Y108.533 E.02905
G1 X120.183 Y109.312 E.02905
G1 X120.472 Y110.125 E.02904
G1 X120.615 Y110.683 E.01937
G1 X120.744 Y111.394 E.02431
G1 X120.814 Y112.252 E.02895
G1 X120.795 Y113.115 E.02905
G1 X120.687 Y113.971 E.02905
G1 X120.49 Y114.812 E.02905
G1 X120.207 Y115.628 E.02905
G1 X119.825 Y116.446 E.03038
G1 X119.154 Y117.489 E.0417
G1 X118.592 Y118.164 E.02957
G1 X117.972 Y118.765 E.02905
G1 X117.293 Y119.298 E.02905
G1 X116.529 Y119.78 E.03037
G1 X115.401 Y120.295 E.0417
G1 X114.562 Y120.558 E.02957
G1 X113.716 Y120.728 E.02905
G1 X112.856 Y120.81 E.02905
G1 X111.993 Y120.802 E.02905
G1 X111.135 Y120.705 E.02905
G1 X110.292 Y120.519 E.02905
G1 X109.472 Y120.247 E.02905
G1 X108.685 Y119.892 E.02905
G1 X107.94 Y119.456 E.02905
G1 X106.928 Y118.674 E.04302
G1 X106.307 Y118.052 E.02957
G1 X105.934 Y117.592 E.01994
G1 X105.295 Y116.656 E.0381
G1 X105.026 Y116.147 E.01937
G1 X104.736 Y115.485 E.02431
G1 X104.469 Y114.667 E.02895
G1 X104.288 Y113.823 E.02905
G1 X104.195 Y112.964 E.02905
G1 X104.192 Y112.101 E.02905
G1 X104.278 Y111.242 E.02905
G1 X104.453 Y110.396 E.02905
G1 X104.714 Y109.573 E.02905
G1 X105.059 Y108.782 E.02904
G1 X105.336 Y108.277 E.01937
G1 X105.728 Y107.67 E.02431
G1 X106.264 Y106.996 E.02895
G1 X106.868 Y106.379 E.02905
G1 X107.451 Y105.895 E.02549
G1 X108.251 Y105.349 E.03259
G1 X108.58 Y105.176 E.01252
G1 X108.82 Y105.544 F9000
;TYPE:Outer wall
G1 F5932.273
G1 X109.218 Y105.336 E.01509
G1 X109.978 Y105.035 E.02752
G1 X110.766 Y104.813 E.02752
G1 X111.572 Y104.675 E.02751
G1 X112.106 Y104.632 E.01805
G1 X112.798 Y104.626 E.02327
G1 X113.612 Y104.699 E.02749
G1 X114.415 Y104.856 E.02752
G1 X115.197 Y105.096 E.02752
G1 X115.95 Y105.415 E.02752
G1 X116.666 Y105.811 E.02752
G1 X117.336 Y106.279 E.02752
G1 X117.955 Y106.814 E.02752
G1 X118.515 Y107.41 E.02752
G1 X119.011 Y108.061 E.02752
G1 X119.436 Y108.76 E.02752
G1 X119.786 Y109.499 E.02752
G1 X120.058 Y110.27 E.02751
G1 X120.19 Y110.79 E.01805
G1 X120.312 Y111.471 E.02327
G1 X120.377 Y112.286 E.02748
G1 X120.357 Y113.103 E.02752
G1 X120.252 Y113.915 E.02752
G1 X120.063 Y114.711 E.02752
G1 X119.793 Y115.483 E.02752
G1 X119.44 Y116.234 E.02792
G1 X118.786 Y117.252 E.04071
G1 X118.256 Y117.881 E.02766
G1 X117.668 Y118.449 E.02752
G1 X117.023 Y118.952 E.02752
G1 X116.319 Y119.393 E.02792
G1 X115.219 Y119.896 E.04071
G1 X114.433 Y120.139 E.02766
G1 X113.631 Y120.298 E.02752
G1 X112.817 Y120.373 E.02752
G1 X111.999 Y120.364 E.02752
G1 X111.186 Y120.269 E.02752
G1 X110.388 Y120.091 E.02752
G1 X109.612 Y119.832 E.02752
G1 X108.868 Y119.493 E.02752
G1 X108.162 Y119.078 E.02752
G1 X107.198 Y118.328 E.04111
G1 X106.619 Y117.744 E.02766
G1 X106.276 Y117.318 E.01841
G1 X105.664 Y116.419 E.03657
G1 X105.415 Y115.944 E.01805
G1 X105.138 Y115.31 E.02327
G1 X104.887 Y114.532 E.02748
G1 X104.717 Y113.732 E.02752
G1 X104.631 Y112.919 E.02752
G1 X104.63 Y112.101 E.02752
G1 X104.714 Y111.287 E.02752
G1 X104.882 Y110.486 E.02752
G1 X105.132 Y109.708 E.02752
G1 X105.461 Y108.959 E.02751
G1 X105.72 Y108.489 E.01805
G1 X106.096 Y107.909 E.02327
G1 X106.606 Y107.27 E.02749
G1 X107.18 Y106.687 E.02752
G1 X107.729 Y106.234 E.02396
G1 X108.493 Y105.715 E.03106
G1 X108.785 Y105.563 E.01109
G1 E-.8 F1500
G1 X109.06 Y98.898 F9000
G1 E.8 F1500
;TYPE:Sparse infill
;WIDTH:0.46
G1 F5932.264
G1 X107.392 Y98.898 E.05612
G1 X111.965 Y103.472 E.21756
G1 X111.379 Y103.523 E.01979
G1 X110.455 Y103.687 E.03156
G1 X109.553 Y103.946 E.03159
G1 X108.592 Y104.345 E.03499
G1 X103.162 Y98.915 E.25833
G1 X101.039 Y101.039 E.10102
G1 X106.109 Y106.109 E.24121
G1 X105.784 Y106.438 E.01558
G1 X105.192 Y107.167 E.03157
G1 X104.745 Y107.844 E.02732
G1 X104.346 Y108.593 E.02852
G1 X98.915 Y103.162 E.25836
G1 X98.898 Y103.179 E.00081
G1 X98.898 Y107.392 E.14172
G1 X103.474 Y111.968 E.21769
G1 X103.469 Y113.035 E.0359
G1 X103.533 Y113.632 E.02021
G1 X98.898 Y109.971 F9000
G1 F5932.264
G1 X98.898 Y111.639 E.05612
G1 X105.622 Y118.363 E.31987
G1 X105.784 Y118.562 E.00865
G1 X106.474 Y119.246 E.03269
G1 X106.616 Y119.357 E.00605
G1 X113.361 Y126.102 E.32089
G1 X109.114 Y126.102 E.14286
G1 X98.898 Y115.886 E.48601
G1 X98.898 Y120.133 E.14286
G1 X104.867 Y126.102 E.28397
G1 X103.199 Y126.102 E.05612
G1 X111.365 Y121.465 F9000
G1 F5932.264
G1 X111.978 Y121.532 E.02076
G1 X112.804 Y121.543 E.02776
G1 X113.029 Y121.522 E.0076
G1 X117.608 Y126.102 E.21785
G1 X121.821 Y126.102 E.14172
G1 X121.838 Y126.085 E.00081
G1 X116.388 Y120.635 E.25927
G1 X116.943 Y120.381 E.02054
G1 X117.738 Y119.877 E.03165
G1 X118.474 Y119.294 E.03158
G1 X118.892 Y118.892 E.01952
G1 X123.961 Y123.961 E.24116
G1 X126.085 Y121.838 E.10102
G1 X120.649 Y116.403 E.25857
G1 X120.894 Y115.874 E.01959
G1 X121.199 Y114.986 E.03158
G1 X121.401 Y114.125 E.02975
G1 X121.527 Y113.034 E.03696
G1 X126.102 Y117.608 E.21762
G1 X126.102 Y113.361 E.14286
G1 X119.425 Y106.685 E.31763
G1 X118.79 Y105.995 E.03153
G1 X118.374 Y105.633 E.01855
G1 X111.639 Y98.898 E.32041
G1 X115.886 Y98.898 E.14286
G1 X126.102 Y109.114 E.48601
G1 X126.102 Y104.867 E.14286
G1 X120.133 Y98.898 E.28397
G1 X121.801 Y98.898 E.05612
; stop printing object Voron_Design_Cube_v7.drc id:0 copy 0
;LAYER_CHANGE
;Z:1.2
;HEIGHT:0.2
;BEFORE_LAYER_CHANGE
G92 E0
;1.2
