;AFTER_LAYER_CHANGE
;1
;_SET_FAN_SPEED_CHANGING_LAYER
; printing object Voron_Design_Cube_v7.drc id:0 copy 0
G1 X121.95 Y126.414 F9000
;TYPE:Inner wall
;WIDTH:0.459999
G1 X103.05 Y126.414
G1 X98.586 Y121.95
G1 X98.586 Y103.05
G1 X103.05 Y98.586
G1 X121.95 Y98.586
G1 X126.414 Y103.05
G1 X126.414 Y121.95
G1 X121.979 Y126.386
G1 X122.123 Y126.831 F9000
G1 X102.877 Y126.831
G1 X98.169 Y122.123
G1 X98.169 Y102.877
G1 X102.877 Y98.169
G1 X122.123 Y98.169
G1 X126.831 Y102.877
G1 X126.831 Y122.123
G1 X122.151 Y126.803
G1 X122.297 Y127.27 F9000
;TYPE:Outer wall
G1 X121.471 Y127.27
G1 X103.527 Y127.27
G1 X102.695 Y127.27
G1 X102.107 Y126.682
G1 X98.318 Y122.893
G1 X97.73 Y122.305
G1 X97.73 Y121.473
G1 X97.73 Y103.527
G1 X97.73 Y102.695
G1 X98.318 Y102.107
G1 X102.107 Y98.318
G1 X102.695 Y97.73
G1 X103.527 Y97.73
G1 X121.473 Y97.73
G1 X122.305 Y97.73
G1 X122.893 Y98.318
G1 X126.682 Y102.107
G1 X127.27 Y102.695
G1 X127.27 Y103.527
G1 X127.27 Y121.473
G1 X127.27 Y122.305
G1 X126.682 Y122.893
G1 X122.916 Y126.659
G1 X122.328 Y127.247
G1 X108.419 Y104.791 F9000
;TYPE:Inner wall
G1 X108.822 Y104.577
G1 X109.664 Y104.239
G1 X110.535 Y103.989
G1 X111.428 Y103.832
G1 X112.039 Y103.779
G1 X112.791 Y103.77
G1 X113.689 Y103.847
G1 X114.58 Y104.017
G1 X115.448 Y104.278
G1 X116.285 Y104.628
G1 X117.08 Y105.063
G1 X117.827 Y105.578
G1 X118.516 Y106.167
G1 X119.14 Y106.825
G1 X119.692 Y107.544
G1 X120.167 Y108.316
G1 X120.56 Y109.134
G1 X120.865 Y109.987
G1 X121.02 Y110.581
G1 X121.155 Y111.32
G1 X121.23 Y112.219
G1 X121.212 Y113.126
G1 X121.1 Y114.025
G1 X120.896 Y114.909
G1 X120.601 Y115.766
G1 X120.191 Y116.647
G1 X119.505 Y117.714
G1 X118.91 Y118.433
G1 X118.261 Y119.065
G1 X117.549 Y119.627
G1 X116.728 Y120.147
G1 X115.574 Y120.674
G1 X114.685 Y120.957
G1 X113.797 Y121.138
G1 X112.894 Y121.226
G1 X111.987 Y121.219
G1 X111.086 Y121.119
G1 X110.2 Y120.926
G1 X109.339 Y120.642
G1 X108.512 Y120.271
G1 X107.728 Y119.816
G1 X106.671 Y119.003
G1 X106.01 Y118.345
G1 X105.608 Y117.852
G1 X104.944 Y116.882
G1 X104.656 Y116.34
G1 X104.354 Y115.651
G1 X104.072 Y114.795
G1 X103.88 Y113.909
G1 X103.78 Y113.007
G1 X103.775 Y112.101
G1 X103.863 Y111.198
G1 X104.045 Y110.31
G1 X104.317 Y109.445
G1 X104.678 Y108.614
G1 X104.971 Y108.075
G1 X105.378 Y107.443
G1 X105.938 Y106.736
G1 X106.571 Y106.086
G1 X107.186 Y105.573
G1 X108.021 Y105.001
G1 X108.384 Y104.809
G1 X108.616 Y105.158 F9000
G1 X109.015 Y104.947
G1 X109.817 Y104.627
G1 X110.648 Y104.391
G1 X111.498 Y104.243
G1 X112.072 Y104.195
G1 X112.794 Y104.187
G1 X113.652 Y104.262
G1 X114.499 Y104.426
G1 X115.326 Y104.677
G1 X116.121 Y105.012
G1 X116.878 Y105.428
G1 X117.588 Y105.92
G1 X118.242 Y106.483
G1 X118.835 Y107.11
G1 X119.36 Y107.796
G1 X119.811 Y108.533
G1 X120.183 Y109.312
G1 X120.472 Y110.125
G1 X120.615 Y110.683
G1 X120.744 Y111.394
G1 X120.814 Y112.252
G1 X120.795 Y113.115
G1 X120.687 Y113.971
G1 X120.49 Y114.812
G1 X120.207 Y115.628
G1 X119.825 Y116.446
G1 X119.154 Y117.489
G1 X118.592 Y118.164
G1 X117.972 Y118.765
G1 X117.293 Y119.298
G1 X116.529 Y119.78
G1 X115.401 Y120.295
G1 X114.562 Y120.558
G1 X113.716 Y120.728
G1 X112.856 Y120.81
G1 X111.993 Y120.802
G1 X111.135 Y120.705
G1 X110.292 Y120.519
G1 X109.472 Y120.247
G1 X108.685 Y119.892
G1 X107.94 Y119.456
G1 X106.928 Y118.674
G1 X106.307 Y118.052
G1 X105.934 Y117.592
G1 X105.295 Y116.656
G1 X105.026 Y116.147
G1 X104.736 Y115.485
G1 X104.469 Y114.667
G1 X104.288 Y113.823
G1 X104.195 Y112.964
G1 X104.192 Y112.101
G1 X104.278 Y111.242
G1 X104.453 Y110.396
G1 X104.714 Y109.573
G1 X105.059 Y108.782
G1 X105.336 Y108.277
G1 X105.728 Y107.67
G1 X106.264 Y106.996
G1 X106.868 Y106.379
G1 X107.451 Y105.895
G1 X108.251 Y105.349
G1 X108.58 Y105.176
G1 X108.82 Y105.544 F9000
;TYPE:Outer wall
G1 X109.218 Y105.336
G1 X109.978 Y105.035
G1 X110.766 Y104.813
G1 X111.572 Y104.675
G1 X112.106 Y104.632
G1 X112.798 Y104.626
G1 X113.612 Y104.699
G1 X114.415 Y104.856
G1 X115.197 Y105.096
G1 X115.95 Y105.415
G1 X116.666 Y105.811
G1 X117.336 Y106.279
G1 X117.955 Y106.814
G1 X118.515 Y107.41
G1 X119.011 Y108.061
G1 X119.436 Y108.76
G1 X119.786 Y109.499
G1 X120.058 Y110.27
G1 X120.19 Y110.79
G1 X120.312 Y111.471
G1 X120.377 Y112.286
G1 X120.357 Y113.103
G1 X120.252 Y113.915
G1 X120.063 Y114.711
G1 X119.793 Y115.483
G1 X119.44 Y116.234
G1 X118.786 Y117.252
G1 X118.256 Y117.881
G1 X117.668 Y118.449
G1 X117.023 Y118.952
G1 X116.319 Y119.393
G1 X115.219 Y119.896
G1 X114.433 Y120.139
G1 X113.631 Y120.298
G1 X112.817 Y120.373
G1 X111.999 Y120.364
G1 X111.186 Y120.269
G1 X110.388 Y120.091
G1 X109.612 Y119.832
G1 X108.868 Y119.493
G1 X108.162 Y119.078
G1 X107.198 Y118.328
G1 X106.619 Y117.744
G1 X106.276 Y117.318
G1 X105.664 Y116.419
G1 X105.415 Y115.944
G1 X105.138 Y115.31
G1 X104.887 Y114.532
G1 X104.717 Y113.732
G1 X104.631 Y112.919
G1 X104.63 Y112.101
G1 X104.714 Y111.287
G1 X104.882 Y110.486
G1 X105.132 Y109.708
G1 X105.461 Y108.959
G1 X105.72 Y108.489
G1 X106.096 Y107.909
G1 X106.606 Y107.27
G1 X107.18 Y106.687
G1 X107.729 Y106.234
G1 X108.493 Y105.715
G1 X108.785 Y105.563
G1 X109.06 Y98.898 F9000
;TYPE:Sparse infill
;WIDTH:0.46
G1 X107.392 Y98.898
G1 X111.965 Y103.472
G1 X111.379 Y103.523
G1 X110.455 Y103.687
G1 X109.553 Y103.946
G1 X108.592 Y104.345
G1 X103.162 Y98.915
G1 X101.039 Y101.039
G1 X106.109 Y106.109
G1 X105.784 Y106.438
G1 X105.192 Y107.167
G1 X104.745 Y107.844
G1 X104.346 Y108.593
G1 X98.915 Y103.162
G1 X98.898 Y103.179
G1 X98.898 Y107.392
G1 X103.474 Y111.968
G1 X103.469 Y113.035
G1 X103.533 Y113.632
G1 X98.898 Y109.971 F9000
G1 X98.898 Y111.639
G1 X105.622 Y118.363
G1 X105.784 Y118.562
G1 X106.474 Y119.246
G1 X106.616 Y119.357
G1 X113.361 Y126.102
G1 X109.114 Y126.102
G1 X98.898 Y115.886
G1 X98.898 Y120.133
G1 X104.867 Y126.102
G1 X103.199 Y126.102
G1 X111.365 Y121.465 F9000
G1 X111.978 Y121.532
G1 X112.804 Y121.543
G1 X113.029 Y121.522
G1 X117.608 Y126.102
G1 X121.821 Y126.102
G1 X121.838 Y126.085
G1 X116.388 Y120.635
G1 X116.943 Y120.381
G1 X117.738 Y119.877
G1 X118.474 Y119.294
G1 X118.892 Y118.892
G1 X123.961 Y123.961
G1 X126.085 Y121.838
G1 X120.649 Y116.403
G1 X120.894 Y115.874
G1 X121.199 Y114.986
G1 X121.401 Y114.125
G1 X121.527 Y113.034
G1 X126.102 Y117.608
G1 X126.102 Y113.361
G1 X119.425 Y106.685
G1 X118.79 Y105.995
G1 X118.374 Y105.633
G1 X111.639 Y98.898
G1 X115.886 Y98.898
G1 X126.102 Y109.114
G1 X126.102 Y104.867
G1 X120.133 Y98.898
G1 X121.801 Y98.898
; stop printing object Voron_Design_Cube_v7.drc id:0 copy 0
;LAYER_CHANGE
;Z:1.2
;HEIGHT:0.2
;BEFORE_LAYER_CHANGE
;1.2
