M83
;AFTER_LAYER_CHANGE
;1.2
;_SET_FAN_SPEED_CHANGING_LAYER
; printing object Voron_Design_Cube_v7.drc id:0 copy 0
G1 E-.8 F1500
G1 X122.15 Y126.414 F9000
G1 E.8 F1500
M73 P4 R55
;TYPE:Inner wall
;WIDTH:0.459999
G1 F5932.273
G1 X102.85 Y126.414 E.64927
G1 X98.586 Y122.15 E.20286
G1 X98.586 Y102.85 E.64927
G1 X102.85 Y98.586 E.20286
G1 X122.15 Y98.586 E.64927
G1 X126.414 Y102.85 E.20286
G1 X126.414 Y122.15 E.64927
G1 X122.179 Y126.386 E.20151
G1 X122.323 Y126.831 F9000
G1 F5932.273
G1 X102.677 Y126.831 E.66089
G1 X98.169 Y122.323 E.21448
G1 X98.169 Y102.677 E.66089
G1 X102.677 Y98.169 E.21448
G1 X122.323 Y98.169 E.66089
G1 X126.831 Y102.677 E.21448
G1 X126.831 Y122.323 E.66089
G1 X122.351 Y126.803 E.21314
G1 X122.509 Y127.265 F9000
;TYPE:Outer wall
G1 F4860
G1 X122.505 Y127.27 E.00022
G1 X121.673 Y127.27 E.02799
G1 F5932.273
G1 X103.327 Y127.27 E.61716
G1 F4860
G1 X102.495 Y127.27 E.02799
G1 X101.907 Y126.682 E.02797
G1 X98.318 Y123.093 E.17074
G1 X97.73 Y122.505 E.02797
G1 X97.73 Y121.673 E.02799
G1 F5932.273
G1 X97.73 Y103.327 E.61716
G1 F4860
G1 X97.73 Y102.495 E.02799
G1 X98.318 Y101.907 E.02797
G1 X101.907 Y98.318 E.17074
G1 X102.495 Y97.73 E.02797
G1 X103.327 Y97.73 E.02799
G1 F5932.273
G1 X121.673 Y97.73 E.61716
G1 F4860
G1 X122.505 Y97.73 E.02799
G1 X123.093 Y98.318 E.02797
G1 X126.682 Y101.907 E.17074
G1 X127.27 Y102.495 E.02797
G1 X127.27 Y103.327 E.02799
G1 F5932.273
G1 X127.27 Y121.673 E.61716
G1 F4860
G1 X127.27 Y122.505 E.02799
G1 X126.682 Y123.093 E.02797
G1 X123.125 Y126.649 E.1692
G1 X122.538 Y127.237 E.02795
G1 E-.8 F1500
G1 X108.423 Y104.789 F9000
G1 E.8 F1500
;TYPE:Inner wall
G1 F5932.273
G1 X108.822 Y104.578 E.0152
G1 X109.664 Y104.239 E.0305
G1 X110.599 Y103.971 E.03274
G1 X111.897 Y103.789 E.04407
G1 X112.787 Y103.77 E.02998
G1 X113.689 Y103.847 E.03045
G1 X114.58 Y104.017 E.0305
G1 X115.448 Y104.278 E.0305
G1 X116.285 Y104.628 E.0305
G1 X117.08 Y105.063 E.0305
G1 X117.827 Y105.578 E.0305
G1 X118.516 Y106.167 E.0305
G1 X119.14 Y106.825 E.0305
G1 X119.692 Y107.544 E.0305
G1 X120.167 Y108.316 E.0305
G1 X120.56 Y109.134 E.0305
G1 X120.887 Y110.048 E.03268
G1 X121.149 Y111.29 E.04268
G1 X121.23 Y112.219 E.03139
G1 X121.212 Y113.126 E.0305
G1 X121.1 Y114.025 E.0305
G1 X120.896 Y114.909 E.0305
G1 X120.601 Y115.766 E.0305
G1 X120.191 Y116.647 E.03268
G1 X119.505 Y117.714 E.04268
G1 X118.91 Y118.433 E.03139
G1 X118.261 Y119.065 E.0305
G1 X117.549 Y119.627 E.0305
G1 X116.728 Y120.147 E.03268
G1 X115.574 Y120.674 E.04268
G1 X114.685 Y120.957 E.03139
G1 X113.797 Y121.138 E.0305
G1 X112.894 Y121.226 E.0305
G1 X111.987 Y121.219 E.0305
G1 X111.086 Y121.119 E.0305
G1 X110.2 Y120.926 E.0305
G1 X109.339 Y120.643 E.0305
G1 X108.512 Y120.271 E.0305
G1 X107.728 Y119.816 E.0305
G1 X106.575 Y118.918 E.04915
G1 X106.01 Y118.345 E.02707
G1 X105.397 Y117.589 E.03274
G1 X104.721 Y116.467 E.04407
G1 X104.355 Y115.655 E.02998
G1 X104.072 Y114.795 E.03045
G1 X103.88 Y113.909 E.0305
G1 X103.78 Y113.007 E.0305
G1 X103.775 Y112.101 E.0305
G1 X103.863 Y111.198 E.0305
G1 X104.045 Y110.31 E.0305
G1 X104.317 Y109.445 E.0305
G1 X104.704 Y108.554 E.03268
G1 X105.362 Y107.469 E.04268
G1 X106.01 Y106.655 E.03502
G1 X106.576 Y106.081 E.02709
G1 X107.052 Y105.684 E.02086
G1 X108.021 Y105.001 E.03988
G1 X108.388 Y104.807 E.01396
G1 X108.619 Y105.156 F9000
G1 F5932.273
G1 X109.015 Y104.947 E.01504
G1 X109.817 Y104.627 E.02905
G1 X110.687 Y104.38 E.03041
G1 X111.954 Y104.202 E.04307
G1 X112.792 Y104.187 E.02819
G1 X113.652 Y104.262 E.02902
G1 X114.499 Y104.426 E.02905
G1 X115.326 Y104.677 E.02905
G1 X116.121 Y105.012 E.02905
G1 X116.878 Y105.428 E.02905
G1 X117.588 Y105.92 E.02905
G1 X118.242 Y106.483 E.02905
G1 X118.835 Y107.11 E.02905
G1 X119.36 Y107.796 E.02905
G1 X119.811 Y108.533 E.02905
G1 X120.183 Y109.312 E.02905
G1 X120.485 Y110.163 E.03038
G1 X120.74 Y111.376 E.0417
G1 X120.814 Y112.252 E.02957
G1 X120.795 Y113.115 E.02905
G1 X120.687 Y113.971 E.02905
G1 X120.49 Y114.812 E.02905
G1 X120.207 Y115.628 E.02905
G1 X119.825 Y116.446 E.03038
G1 X119.154 Y117.489 E.0417
G1 X118.592 Y118.164 E.02957
G1 X117.972 Y118.765 E.02905
G1 X117.293 Y119.298 E.02905
G1 X116.529 Y119.78 E.03038
G1 X115.401 Y120.295 E.0417
G1 X114.562 Y120.558 E.02957
G1 X113.716 Y120.728 E.02905
G1 X112.856 Y120.81 E.02905
G1 X111.993 Y120.802 E.02905
G1 X111.135 Y120.705 E.02905
G1 X110.292 Y120.519 E.02905
G1 X109.472 Y120.247 E.02905
G1 X108.685 Y119.892 E.02905
G1 X107.94 Y119.456 E.02905
G1 X106.867 Y118.62 E.04574
G1 X106.307 Y118.052 E.02685
G1 X105.739 Y117.349 E.03041
G1 X105.079 Y116.252 E.04307
G1 X104.737 Y115.487 E.02819
G1 X104.469 Y114.667 E.02902
G1 X104.288 Y113.823 E.02905
G1 X104.195 Y112.964 E.02905
G1 X104.192 Y112.101 E.02905
G1 X104.278 Y111.242 E.02905
G1 X104.453 Y110.396 E.02905
G1 X104.714 Y109.573 E.02905
G1 X105.075 Y108.746 E.03037
G1 X105.718 Y107.686 E.0417
G1 X106.307 Y106.948 E.03175
G1 X106.871 Y106.376 E.027
G1 X107.316 Y106.006 E.0195
G1 X108.251 Y105.349 E.03843
G1 X108.584 Y105.174 E.01266
G1 X108.824 Y105.542 F9000
;TYPE:Outer wall
G1 F5932.273
G1 X109.218 Y105.336 E.01494
G1 X109.978 Y105.035 E.02752
G1 X110.778 Y104.81 E.02793
G1 X112.015 Y104.636 E.04205
G1 X112.797 Y104.626 E.02631
G1 X113.612 Y104.699 E.02751
G1 X114.415 Y104.856 E.02752
G1 X115.197 Y105.096 E.02752
G1 X115.95 Y105.415 E.02752
G1 X116.665 Y105.811 E.02752
G1 X117.336 Y106.279 E.02752
G1 X117.955 Y106.814 E.02752
G1 X118.515 Y107.41 E.02752
G1 X119.011 Y108.061 E.02752
G1 X119.436 Y108.76 E.02752
G1 X119.786 Y109.499 E.02752
G1 X120.062 Y110.282 E.02792
G1 X120.311 Y111.466 E.04071
G1 X120.377 Y112.286 E.02766
G1 X120.357 Y113.103 E.02752
G1 X120.252 Y113.915 E.02752
G1 X120.063 Y114.711 E.02752
G1 X119.793 Y115.483 E.02752
G1 X119.44 Y116.234 E.02792
G1 X118.786 Y117.252 E.04071
G1 X118.256 Y117.881 E.02766
G1 X117.668 Y118.449 E.02752
G1 X117.023 Y118.952 E.02752
G1 X116.319 Y119.393 E.02792
G1 X115.219 Y119.896 E.04071
G1 X114.433 Y120.139 E.02766
G1 X113.631 Y120.298 E.02752
G1 X112.817 Y120.373 E.02752
G1 X111.999 Y120.364 E.02752
G1 X111.186 Y120.269 E.02752
G1 X110.388 Y120.091 E.02752
G1 X109.612 Y119.832 E.02752
G1 X108.868 Y119.493 E.02752
G1 X108.162 Y119.078 E.02752
G1 X107.179 Y118.312 E.04192
G1 X106.619 Y117.744 E.02685
G1 X106.099 Y117.097 E.02793
G1 X105.454 Y116.026 E.04205
G1 X105.138 Y115.31 E.02631
G1 X104.887 Y114.532 E.02751
G1 X104.717 Y113.732 E.02752
G1 X104.631 Y112.919 E.02752
G1 X104.63 Y112.101 E.02752
G1 X104.714 Y111.287 E.02752
G1 X104.882 Y110.486 E.02752
G1 X105.132 Y109.708 E.02752
G1 X105.466 Y108.948 E.02792
G1 X106.093 Y107.913 E.04071
G1 X106.606 Y107.27 E.02766
G1 X107.18 Y106.687 E.02752
G1 X107.595 Y106.345 E.0181
G1 X108.493 Y105.715 E.03689
G1 X108.789 Y105.561 E.01123
G1 E-.8 F1500
G1 X105.724 Y98.898 F9000
G1 E.8 F1500
;TYPE:Sparse infill
;WIDTH:0.46
G1 F5932.264
G1 X107.392 Y98.898 E.05612
G1 X111.97 Y103.476 E.21777
G1 X110.621 Y103.652 E.04576
G1 X109.553 Y103.946 E.03725
G1 X108.592 Y104.345 E.03501
G1 X103.145 Y98.898 E.25914
G1 X102.979 Y98.898 E.00558
G1 X100.939 Y100.939 E.09707
G1 X106.109 Y106.109 E.24596
G1 X105.784 Y106.438 E.01558
G1 X105.191 Y107.168 E.03162
G1 X104.394 Y108.481 E.05167
G1 X104.346 Y108.593 E.00409
G1 X98.898 Y103.145 E.25916
G1 X98.898 Y107.392 E.14286
G1 X103.474 Y111.968 E.21769
G1 X103.469 Y113.035 E.0359
G1 X103.533 Y113.632 E.02021
G1 X98.898 Y121.801 F9000
G1 F5932.264
G1 X98.898 Y120.133 E.05612
G1 X104.867 Y126.102 E.28397
G1 X109.114 Y126.102 E.14286
G1 X98.898 Y115.886 E.48601
G1 X98.898 Y111.639 E.14286
G1 X105.639 Y118.38 E.3207
G1 X105.784 Y118.562 E.0078
G1 X106.474 Y119.246 E.03271
G1 X106.616 Y119.357 E.00605
G1 X113.361 Y126.102 E.32089
G1 X116.811 Y126.102 E.11606
G1 X117.209 Y125.703 E.01896
G1 X113.029 Y121.522 E.19889
G1 X113.826 Y121.45 E.02692
G1 X114.646 Y121.289 E.0281
G1 X115.546 Y121.019 E.03162
G1 X116.388 Y120.635 E.03113
G1 X121.438 Y125.684 E.24024
G1 X122.048 Y125.684 E.02053
G1 X123.7 Y124.033 E.07857
G1 X123.6 Y123.933 E.00476
G1 X123.766 Y123.766 E.00793
G1 X118.892 Y118.892 E.23189
G1 X119.074 Y118.717 E.0085
G1 X119.668 Y118.02 E.0308
G1 X120.499 Y116.728 E.05167
G1 X120.649 Y116.403 E.01206
G1 X126.068 Y121.821 E.25778
G1 X126.102 Y121.788 E.0016
G1 X126.102 Y117.608 E.1406
G1 X121.527 Y113.034 E.21762
G1 X121.546 Y112.298 E.02476
G1 X121.474 Y111.368 E.03135
G1 X126.102 Y115.029 F9000
G1 F5932.264
G1 X126.102 Y113.361 E.05612
G1 X119.425 Y106.685 E.31763
G1 X118.79 Y105.995 E.03154
G1 X118.402 Y105.662 E.01719
G1 X111.639 Y98.898 E.32176
G1 X115.886 Y98.898 E.14286
G1 X126.102 Y109.114 E.48601
G1 X126.102 Y104.867 E.14286
G1 X120.133 Y98.898 E.28397
G1 X121.801 Y98.898 E.05612
; stop printing object Voron_Design_Cube_v7.drc id:0 copy 0
;LAYER_CHANGE
;Z:1.4
;HEIGHT:0.2
;BEFORE_LAYER_CHANGE
G92 E0
;1.4
