G90
M83
G92 E0
G1 Z0.2 F600
G1 X140.000 Y80.000 E0.8000 F1800
G1 Y80.400 E0.8500 F1800
G1 X80.000 Y80.400 E1.6500 F1800
G1 Y80.800 E1.7000 F1800
G1 X140.000 Y80.800 E2.5000 F1800
G1 Y81.200 E2.5500 F1800
G1 X80.000 Y81.200 E3.3500 F1800
G1 Y81.600 E3.4000 F1800
G1 X140.000 Y81.600 E4.2000 F1800
G1 Y82.000 E4.2500 F1800
G1 X80.000 Y82.000 E5.0500 F1800
G1 Y82.400 E5.1000 F1800
G1 X140.000 Y82.400 E5.9000 F1800
G1 Y82.800 E5.9500 F1800
G1 X80.000 Y82.800 E6.7500 F1800
G1 Y83.200 E6.8000 F1800
G1 X140.000 Y83.200 E7.6000 F1800
G1 Y83.600 E7.6500 F1800
G1 X80.000 Y83.600 E8.4500 F1800
G1 Y84.000 E8.5000 F1800
G1 X140.000 Y84.000 E9.3000 F1800
G1 Y84.400 E9.3500 F1800
G1 X80.000 Y84.400 E10.1500 F1800
G1 Y84.800 E10.2000 F1800
G1 X140.000 Y84.800 E11.0000 F1800
G1 Y85.200 E11.0500 F1800
G1 X80.000 Y85.200 E11.8500 F1800
G1 Y85.600 E11.9000 F1800
G1 X140.000 Y85.600 E12.7000 F1800
G1 Y86.000 E12.7500 F1800
G1 X80.000 Y86.000 E13.5500 F1800
G1 Y86.400 E13.6000 F1800
G1 X140.000 Y86.400 E14.4000 F1800
G1 Y86.800 E14.4500 F1800
G1 X80.000 Y86.800 E15.2500 F1800
G1 Y87.200 E15.3000 F1800
G1 X140.000 Y87.200 E16.1000 F1800
G1 Y87.600 E16.1500 F1800
G1 X80.000 Y87.600 E16.9500 F1800
G1 Y88.000 E17.0000 F1800
G1 X140.000 Y88.000 E17.8000 F1800
G1 Y88.400 E17.8500 F1800
G1 X80.000 Y88.400 E18.6500 F1800
G1 Y88.800 E18.7000 F1800
G1 X140.000 Y88.800 E19.5000 F1800
G1 Y89.200 E19.5500 F1800
G1 X80.000 Y89.200 E20.3500 F1800
G1 Y89.600 E20.4000 F1800
G1 X140.000 Y89.600 E21.2000 F1800
G1 Y90.000 E21.2500 F1800
G1 X80.000 Y90.000 E22.0500 F1800
G1 Y90.400 E22.1000 F1800
G1 X140.000 Y90.400 E22.9000 F1800
G1 Y90.800 E22.9500 F1800
G1 X80.000 Y90.800 E23.7500 F1800
G1 Y91.200 E23.8000 F1800
G1 X140.000 Y91.200 E24.6000 F1800
G1 Y91.600 E24.6500 F1800
G1 X80.000 Y91.600 E25.4500 F1800
G1 Y92.000 E25.5000 F1800
G1 X140.000 Y92.000 E26.3000 F1800
G1 Y92.400 E26.3500 F1800
G1 X80.000 Y92.400 E27.1500 F1800
G1 Y92.800 E27.2000 F1800
G1 X140.000 Y92.800 E28.0000 F1800
G1 Y93.200 E28.0500 F1800
G1 X80.000 Y93.200 E28.8500 F1800
G1 Y93.600 E28.9000 F1800
G1 X140.000 Y93.600 E29.7000 F1800
G1 Y94.000 E29.7500 F1800
G1 X80.000 Y94.000 E30.5500 F1800
G1 Y94.400 E30.6000 F1800
G1 X140.000 Y94.400 E31.4000 F1800
G1 Y94.800 E31.4500 F1800
G1 X80.000 Y94.800 E32.2500 F1800
G1 Y95.200 E32.3000 F1800
G1 X140.000 Y95.200 E33.1000 F1800
G1 Y95.600 E33.1500 F1800
G1 X80.000 Y95.600 E33.9500 F1800
G1 Y96.000 E34.0000 F1800
G1 X140.000 Y96.000 E34.8000 F1800
G1 Y96.400 E34.8500 F1800
G1 X80.000 Y96.400 E35.6500 F1800
G1 Y96.800 E35.7000 F1800
G1 X140.000 Y96.800 E36.5000 F1800
G1 Y97.200 E36.5500 F1800
G1 X80.000 Y97.200 E37.3500 F1800
G1 Y97.600 E37.4000 F1800
G1 X140.000 Y97.600 E38.2000 F1800
G1 Y98.000 E38.2500 F1800
G1 X80.000 Y98.000 E39.0500 F1800
G1 Y98.400 E39.1000 F1800
G1 X140.000 Y98.400 E39.9000 F1800
G1 Y98.800 E39.9500 F1800
G1 X80.000 Y98.800 E40.7500 F1800
G1 Y99.200 E40.8000 F1800
G1 X140.000 Y99.200 E41.6000 F1800
G1 Y99.600 E41.6500 F1800
G1 X80.000 Y99.600 E42.4500 F1800
G1 Y100.000 E42.5000 F1800
G1 X140.000 Y100.000 E43.3000 F1800
G1 Y100.400 E43.3500 F1800
G1 X80.000 Y100.400 E44.1500 F1800
G1 Y100.800 E44.2000 F1800
G1 X140.000 Y100.800 E45.0000 F1800
G1 Y101.200 E45.0500 F1800
G1 X80.000 Y101.200 E45.8500 F1800
G1 Y101.600 E45.9000 F1800
G1 X140.000 Y101.600 E46.7000 F1800
G1 Y102.000 E46.7500 F1800
G1 X80.000 Y102.000 E47.5500 F1800
G1 Y102.400 E47.6000 F1800
G1 X140.000 Y102.400 E48.4000 F1800
G1 Y102.800 E48.4500 F1800
G1 X80.000 Y102.800 E49.2500 F1800
G1 Y103.200 E49.3000 F1800
G1 X140.000 Y103.200 E50.1000 F1800
G1 Y103.600 E50.1500 F1800
G1 X80.000 Y103.600 E50.9500 F1800
G1 Y104.000 E51.0000 F1800
G1 X140.000 Y104.000 E51.8000 F1800
G1 Y104.400 E51.8500 F1800
G1 X80.000 Y104.400 E52.6500 F1800
G1 Y104.800 E52.7000 F1800
G1 X140.000 Y104.800 E53.5000 F1800
G1 Y105.200 E53.5500 F1800
G1 X80.000 Y105.200 E54.3500 F1800
G1 Y105.600 E54.4000 F1800
G1 X140.000 Y105.600 E55.2000 F1800
G1 Y106.000 E55.2500 F1800
G1 X80.000 Y106.000 E56.0500 F1800
G1 Y106.400 E56.1000 F1800
G1 X140.000 Y106.400 E56.9000 F1800
G1 Y106.800 E56.9500 F1800
G1 X80.000 Y106.800 E57.7500 F1800
G1 Y107.200 E57.8000 F1800
G1 X140.000 Y107.200 E58.6000 F1800
G1 Y107.600 E58.6500 F1800
G1 X80.000 Y107.600 E59.4500 F1800
G1 Y108.000 E59.5000 F1800
G1 X140.000 Y108.000 E60.3000 F1800
G1 Y108.400 E60.3500 F1800
G1 X80.000 Y108.400 E61.1500 F1800
G1 Y108.800 E61.2000 F1800
G1 X140.000 Y108.800 E62.0000 F1800
G1 Y109.200 E62.0500 F1800
G1 X80.000 Y109.200 E62.8500 F1800
G1 Y109.600 E62.9000 F1800
G1 X140.000 Y109.600 E63.7000 F1800
G1 Y110.000 E63.7500 F1800
G1 X80.000 Y110.000 E64.5500 F1800
G1 Y110.400 E64.6000 F1800
G1 X140.000 Y110.400 E65.4000 F1800
G1 Y110.800 E65.4500 F1800
G1 X80.000 Y110.800 E66.2500 F1800
G1 Y111.200 E66.3000 F1800
G1 X140.000 Y111.200 E67.1000 F1800
G1 Y111.600 E67.1500 F1800
G1 X80.000 Y111.600 E67.9500 F1800
G1 Y112.000 E68.0000 F1800
G1 X140.000 Y112.000 E68.8000 F1800
G1 Y112.400 E68.8500 F1800
G1 X80.000 Y112.400 E69.6500 F1800
G1 Y112.800 E69.7000 F1800
G1 X140.000 Y112.800 E70.5000 F1800
G1 Y113.200 E70.5500 F1800
G1 X80.000 Y113.200 E71.3500 F1800
G1 Y113.600 E71.4000 F1800
G1 X140.000 Y113.600 E72.2000 F1800
G1 Y114.000 E72.2500 F1800
G1 X80.000 Y114.000 E73.0500 F1800
G1 Y114.400 E73.1000 F1800
G1 X140.000 Y114.400 E73.9000 F1800
G1 Y114.800 E73.9500 F1800
G1 X80.000 Y114.800 E74.7500 F1800
G1 Y115.200 E74.8000 F1800
G1 X140.000 Y115.200 E75.6000 F1800
G1 Y115.600 E75.6500 F1800
G1 X80.000 Y115.600 E76.4500 F1800
G1 Y116.000 E76.5000 F1800
G1 X140.000 Y116.000 E77.3000 F1800
G1 Y116.400 E77.3500 F1800
G1 X80.000 Y116.400 E78.1500 F1800
G1 Y116.800 E78.2000 F1800
G1 X140.000 Y116.800 E79.0000 F1800
G1 Y117.200 E79.0500 F1800
G1 X80.000 Y117.200 E79.8500 F1800
G1 Y117.600 E79.9000 F1800
G1 X140.000 Y117.600 E80.7000 F1800
G1 Y118.000 E80.7500 F1800
G1 X80.000 Y118.000 E81.5500 F1800
G1 Y118.400 E81.6000 F1800
G1 X140.000 Y118.400 E82.4000 F1800
G1 Y118.800 E82.4500 F1800
G1 X80.000 Y118.800 E83.2500 F1800
G1 Y119.200 E83.3000 F1800
G1 X140.000 Y119.200 E84.1000 F1800
G1 Y119.600 E84.1500 F1800
G1 X80.000 Y119.600 E84.9500 F1800
G1 Y120.000 E85.0000 F1800
G1 X140.000 Y120.000 E85.8000 F1800
G1 Y120.400 E85.8500 F1800
G1 X80.000 Y120.400 E86.6500 F1800
G1 Y120.800 E86.7000 F1800
G1 X140.000 Y120.800 E87.5000 F1800
G1 Y121.200 E87.5500 F1800
G1 X80.000 Y121.200 E88.3500 F1800
G1 Y121.600 E88.4000 F1800
G1 X140.000 Y121.600 E89.2000 F1800
G1 Y122.000 E89.2500 F1800
G1 X80.000 Y122.000 E90.0500 F1800
G1 Y122.400 E90.1000 F1800
G1 X140.000 Y122.400 E90.9000 F1800
G1 Y122.800 E90.9500 F1800
G1 X80.000 Y122.800 E91.7500 F1800
G1 Y123.200 E91.8000 F1800
G1 X140.000 Y123.200 E92.6000 F1800
G1 Y123.600 E92.6500 F1800
G1 X80.000 Y123.600 E93.4500 F1800
G1 Y124.000 E93.5000 F1800
G1 X140.000 Y124.000 E94.3000 F1800
G1 Y124.400 E94.3500 F1800
G1 X80.000 Y124.400 E95.1500 F1800
G1 Y124.800 E95.2000 F1800
G1 X140.000 Y124.800 E96.0000 F1800
G1 Y125.200 E96.0500 F1800
G1 X80.000 Y125.200 E96.8500 F1800
G1 Y125.600 E96.9000 F1800
G1 X140.000 Y125.600 E97.7000 F1800
G1 Y126.000 E97.7500 F1800
G1 X80.000 Y126.000 E98.5500 F1800
G1 Y126.400 E98.6000 F1800
G1 X140.000 Y126.400 E99.4000 F1800
G1 Y126.800 E99.4500 F1800
G1 X80.000 Y126.800 E100.2500 F1800
G1 Y127.200 E100.3000 F1800
G1 X140.000 Y127.200 E101.1000 F1800
G1 Y127.600 E101.1500 F1800
G1 X80.000 Y127.600 E101.9500 F1800
G1 Y128.000 E102.0000 F1800
G1 X140.000 Y128.000 E102.8000 F1800
G1 Y128.400 E102.8500 F1800
G1 X80.000 Y128.400 E103.6500 F1800
G1 Y128.800 E103.7000 F1800
G1 X140.000 Y128.800 E104.5000 F1800
G1 Y129.200 E104.5500 F1800
G1 X80.000 Y129.200 E105.3500 F1800
G1 Y129.600 E105.4000 F1800
G1 X140.000 Y129.600 E106.2000 F1800
G1 Y130.000 E106.2500 F1800
G1 X80.000 Y130.000 E107.0500 F1800
G1 Y130.400 E107.1000 F1800
G1 X140.000 Y130.400 E107.9000 F1800
G1 Y130.800 E107.9500 F1800
G1 X80.000 Y130.800 E108.7500 F1800
G1 Y131.200 E108.8000 F1800
G1 X140.000 Y131.200 E109.6000 F1800
G1 Y131.600 E109.6500 F1800
G1 X80.000 Y131.600 E110.4500 F1800
G1 Y132.000 E110.5000 F1800
G1 X140.000 Y132.000 E111.3000 F1800
G1 Y132.400 E111.3500 F1800
G1 X80.000 Y132.400 E112.1500 F1800
G1 Y132.800 E112.2000 F1800
G1 X140.000 Y132.800 E113.0000 F1800
G1 Y133.200 E113.0500 F1800
G1 X80.000 Y133.200 E113.8500 F1800
G1 Y133.600 E113.9000 F1800
G1 X140.000 Y133.600 E114.7000 F1800
G1 Y134.000 E114.7500 F1800
G1 X80.000 Y134.000 E115.5500 F1800
G1 Y134.400 E115.6000 F1800
G1 X140.000 Y134.400 E116.4000 F1800
G1 Y134.800 E116.4500 F1800
G1 X80.000 Y134.800 E117.2500 F1800
G1 Y135.200 E117.3000 F1800
G1 X140.000 Y135.200 E118.1000 F1800
G1 Y135.600 E118.1500 F1800
G1 X80.000 Y135.600 E118.9500 F1800
G1 Y136.000 E119.0000 F1800
G1 X140.000 Y136.000 E119.8000 F1800
G1 Y136.400 E119.8500 F1800
G1 X80.000 Y136.400 E120.6500 F1800
G1 Y136.800 E120.7000 F1800
G1 X140.000 Y136.800 E121.5000 F1800
G1 Y137.200 E121.5500 F1800
G1 X80.000 Y137.200 E122.3500 F1800
G1 Y137.600 E122.4000 F1800
G1 X140.000 Y137.600 E123.2000 F1800
G1 Y138.000 E123.2500 F1800
G1 X80.000 Y138.000 E124.0500 F1800
G1 Y138.400 E124.1000 F1800
G1 X140.000 Y138.400 E124.9000 F1800
G1 Y138.800 E124.9500 F1800
G1 X80.000 Y138.800 E125.7500 F1800
G1 Y139.200 E125.8000 F1800
G1 X140.000 Y139.200 E126.6000 F1800
G1 Y139.600 E126.6500 F1800
G1 X80.000 Y139.600 E127.4500 F1800
G1 Y140.000 E127.5000 F1800
G1 X140.000 Y140.000 E128.3000 F1800
G1 Y140.400 E128.3500 F1800
G1 X80.000 Y140.400 E129.1500 F1800
G1 Y140.800 E129.2000 F1800
G1 X140.000 Y140.800 E130.0000 F1800
G1 Y141.200 E130.0500 F1800
G1 X80.000 Y141.200 E130.8500 F1800
G1 Y141.600 E130.9000 F1800
G1 X140.000 Y141.600 E131.7000 F1800
G1 Y142.000 E131.7500 F1800
G1 X80.000 Y142.000 E132.5500 F1800
G1 Y142.400 E132.6000 F1800
G1 X140.000 Y142.400 E133.4000 F1800
G1 Y142.800 E133.4500 F1800
G1 X80.000 Y142.800 E134.2500 F1800
G1 Y143.200 E134.3000 F1800
G1 X140.000 Y143.200 E135.1000 F1800
G1 Y143.600 E135.1500 F1800
G1 X80.000 Y143.600 E135.9500 F1800
G1 Y144.000 E136.0000 F1800
G1 X140.000 Y144.000 E136.8000 F1800
G1 Y144.400 E136.8500 F1800
G1 X80.000 Y144.400 E137.6500 F1800
G1 Y144.800 E137.7000 F1800
G1 X140.000 Y144.800 E138.5000 F1800
G1 Y145.200 E138.5500 F1800
G1 X80.000 Y145.200 E139.3500 F1800
G1 Y145.600 E139.4000 F1800
G1 X140.000 Y145.600 E140.2000 F1800
G1 Y146.000 E140.2500 F1800
G1 X80.000 Y146.000 E141.0500 F1800
G1 Y146.400 E141.1000 F1800
G1 X140.000 Y146.400 E141.9000 F1800
G1 Y146.800 E141.9500 F1800
G1 X80.000 Y146.800 E142.7500 F1800
G1 Y147.200 E142.8000 F1800
G1 X140.000 Y147.200 E143.6000 F1800
G1 Y147.600 E143.6500 F1800
G1 X80.000 Y147.600 E144.4500 F1800
G1 Y148.000 E144.5000 F1800
G1 X140.000 Y148.000 E145.3000 F1800
G1 Y148.400 E145.3500 F1800
G1 X80.000 Y148.400 E146.1500 F1800
G1 Y148.800 E146.2000 F1800
G1 X140.000 Y148.800 E147.0000 F1800
G1 Y149.200 E147.0500 F1800
G1 X80.000 Y149.200 E147.8500 F1800
G1 Y149.600 E147.9000 F1800
G1 X140.000 Y149.600 E148.7000 F1800
G1 Y150.000 E148.7500 F1800
G1 X80.000 Y150.000 E149.5500 F1800
G1 Y150.400 E149.6000 F1800
G1 X140.000 Y150.400 E150.4000 F1800
G1 Y150.800 E150.4500 F1800
G1 X80.000 Y150.800 E151.2500 F1800
G1 Y151.200 E151.3000 F1800
G1 X140.000 Y151.200 E152.1000 F1800
G1 Y151.600 E152.1500 F1800
G1 X80.000 Y151.600 E152.9500 F1800
G1 Y152.000 E153.0000 F1800
G1 X140.000 Y152.000 E153.8000 F1800
G1 Y152.400 E153.8500 F1800
G1 X80.000 Y152.400 E154.6500 F1800
G1 Y152.800 E154.7000 F1800
G1 X140.000 Y152.800 E155.5000 F1800
G1 Y153.200 E155.5500 F1800
G1 X80.000 Y153.200 E156.3500 F1800
G1 Y153.600 E156.4000 F1800
G1 X140.000 Y153.600 E157.2000 F1800
G1 Y154.000 E157.2500 F1800
G1 X80.000 Y154.000 E158.0500 F1800
G1 Y154.400 E158.1000 F1800
G1 X140.000 Y154.400 E158.9000 F1800
G1 Y154.800 E158.9500 F1800
G1 X80.000 Y154.800 E159.7500 F1800
G1 Y155.200 E159.8000 F1800
G1 X140.000 Y155.200 E160.6000 F1800
G1 Y155.600 E160.6500 F1800
G1 X80.000 Y155.600 E161.4500 F1800
G1 Y156.000 E161.5000 F1800
G1 X140.000 Y156.000 E162.3000 F1800
G1 Y156.400 E162.3500 F1800
G1 X80.000 Y156.400 E163.1500 F1800
G1 Y156.800 E163.2000 F1800
G1 X140.000 Y156.800 E164.0000 F1800
G1 Y157.200 E164.0500 F1800
G1 X80.000 Y157.200 E164.8500 F1800
G1 Y157.600 E164.9000 F1800
G1 X140.000 Y157.600 E165.7000 F1800
G1 Y158.000 E165.7500 F1800
G1 X80.000 Y158.000 E166.5500 F1800
G1 Y158.400 E166.6000 F1800
G1 X140.000 Y158.400 E167.4000 F1800
G1 Y158.800 E167.4500 F1800
G1 X80.000 Y158.800 E168.2500 F1800
G1 Y159.200 E168.3000 F1800
G1 X140.000 Y159.200 E169.1000 F1800
G1 Y159.600 E169.1500 F1800
G1 X80.000 Y159.600 E169.9500 F1800
G1 Y160.000 E170.0000 F1800
M400
