G1 X169.513 Y158.329 F60000
G1 Z.2 F30000
G1 Z.2
G1 F2400
G1 F12000
G1 X170.254 Y158.769
G1 X171.048 Y159.137
G1 X171.481 Y159.297
G1 X172.322 Y159.538
G1 X173.194 Y159.691
G1 X174.076 Y159.754
G1 X174.96 Y159.726
G1 X175.837 Y159.606
G1 X176.696 Y159.396
G1 X177.529 Y159.099
G1 X178.328 Y158.718
G1 X179.082 Y158.256
G1 X179.785 Y157.718
G1 X180.422 Y157.117
G1 X180.731 Y156.776
G1 X181.268 Y156.084
G1 X181.735 Y155.333
G1 X182.122 Y154.537
G1 X182.424 Y153.706
G1 X182.639 Y152.848
G1 X182.764 Y151.977
G1 X182.799 Y151.303
G1 X182.765 Y150.423
G1 X182.639 Y149.548
G1 X182.424 Y148.69
G1 X182.122 Y147.859
G1 X181.735 Y147.063
G1 X181.268 Y146.311
G1 X180.731 Y145.619
G1 X180.422 Y145.278
G1 X179.785 Y144.678
G1 X179.082 Y144.14
G1 X178.328 Y143.678
G1 X177.53 Y143.297
G1 X176.705 Y143.002
G1 X176.26 Y142.882
G1 X175.4 Y142.719
G1 X174.518 Y142.644
G1 X173.634 Y142.662
G1 X172.756 Y142.77
G1 X171.894 Y142.968
G1 X171.057 Y143.255
G1 X170.254 Y143.626
G1 X169.493 Y144.078
G1 X168.784 Y144.607
G1 X168.132 Y145.206
G1 X167.546 Y145.868
G1 X167.032 Y146.588
G1 X166.595 Y147.357
G1 X166.239 Y148.167
G1 X165.969 Y149.01
G1 X165.789 Y149.867
G1 X165.73 Y150.323
G1 X165.684 Y151.198
G1 X165.73 Y152.072
G1 X165.789 Y152.529
G1 X165.969 Y153.386
G1 X166.239 Y154.228
G1 X166.595 Y155.039
G1 X167.032 Y155.808
G1 X167.546 Y156.527
G1 X168.132 Y157.19
G1 X168.784 Y157.789
G1 X169.479 Y158.307
G1 X169.911 Y158.034 F30000
G1 F12000
G1 X170.467 Y158.365
G1 X171.224 Y158.715
G1 X171.623 Y158.863
G1 X172.425 Y159.092
G1 X173.25 Y159.237
G1 X174.085 Y159.297
G1 X174.922 Y159.269
G1 X175.751 Y159.156
G1 X176.565 Y158.958
G1 X177.353 Y158.677
G1 X178.109 Y158.315
G1 X178.823 Y157.878
G1 X179.489 Y157.369
G1 X180.095 Y156.797
G1 X180.381 Y156.482
G1 X180.892 Y155.823
G1 X181.334 Y155.112
G1 X181.7 Y154.359
G1 X181.987 Y153.572
G1 X182.19 Y152.76
G1 X182.309 Y151.933
G1 X182.341 Y151.3
G1 X182.309 Y150.464
G1 X182.19 Y149.636
G1 X181.987 Y148.824
G1 X181.7 Y148.038
G1 X181.334 Y147.284
G1 X180.892 Y146.573
G1 X180.381 Y145.914
G1 X180.095 Y145.599
G1 X179.489 Y145.026
G1 X178.823 Y144.518
G1 X178.109 Y144.08
G1 X177.354 Y143.719
G1 X176.568 Y143.439
G1 X176.158 Y143.328
G1 X175.338 Y143.172
G1 X174.504 Y143.102
G1 X173.666 Y143.118
G1 X172.835 Y143.221
G1 X172.019 Y143.409
G1 X171.227 Y143.68
G1 X170.467 Y144.031
G1 X169.747 Y144.459
G1 X169.076 Y144.959
G1 X168.459 Y145.526
G1 X167.905 Y146.153
G1 X167.418 Y146.835
G1 X167.004 Y147.563
G1 X166.667 Y148.329
G1 X166.411 Y149.127
G1 X166.24 Y149.943
G1 X166.185 Y150.365
G1 X166.142 Y151.198
G1 X166.185 Y152.031
G1 X166.24 Y152.453
G1 X166.411 Y153.269
G1 X166.667 Y154.066
G1 X167.004 Y154.833
G1 X167.418 Y155.561
G1 X167.905 Y156.242
G1 X168.459 Y156.87
G1 X169.076 Y157.436
G1 X169.747 Y157.936
G1 X169.877 Y158.014
G1 F3600
G1 X182.998 Y137.105 F30000
G1 F2400
G1 F12000
G1 X188.335 Y142.442
G1 X188.335 Y159.954
G1 X182.998 Y165.291
G1 X165.486 Y165.291
G1 X160.149 Y159.954
G1 X160.149 Y142.442
G1 X165.486 Y137.105
G1 X182.958 Y137.105
G1 X183.188 Y136.648 F30000
G1 F12000
G1 X183.411 Y136.871
G1 X188.792 Y142.252
G1 X188.792 Y160.143
G1 X183.188 Y165.748
G1 X165.297 Y165.748
G1 X159.692 Y160.143
G1 X159.692 Y142.252
G1 X165.297 Y136.648
G1 X183.148 Y136.648
G1 X182.65 Y137.242 F30000
G1 F18000
G1 X188.198 Y142.79
G1 X188.198 Y143.439 F30000
G1 F18000
G1 X182.002 Y137.242
G1 X181.353 Y137.242 F30000
G1 F18000
G1 X188.198 Y144.087
G1 X188.198 Y144.735 F30000
G1 F18000
G1 X180.705 Y137.242
G1 X180.057 Y137.242 F30000
G1 F18000
G1 X188.198 Y145.383
G1 X188.198 Y146.031 F30000
G1 F18000
G1 X179.409 Y137.242
G1 X178.761 Y137.242 F30000
G1 F18000
G1 X188.198 Y146.68
G1 X188.198 Y147.328 F30000
G1 F18000
G1 X178.112 Y137.242
G1 X177.464 Y137.242 F30000
G1 F18000
G1 X188.198 Y147.976
G1 X188.198 Y148.624 F30000
G1 F18000
G1 X176.816 Y137.242
G1 X176.168 Y137.242 F30000
G1 F18000
G1 X188.198 Y149.273
G1 X188.198 Y149.921 F30000
G1 F18000
G1 X175.519 Y137.242
G1 X174.871 Y137.242 F30000
G1 F18000
G1 X188.198 Y150.569
G1 X188.198 Y151.217 F30000
G1 F18000
G1 X174.223 Y137.242
G1 X173.575 Y137.242 F30000
G1 F18000
G1 X188.198 Y151.865
G1 X188.198 Y152.514 F30000
G1 F18000
G1 X172.927 Y137.242
G1 X172.278 Y137.242 F30000
G1 F18000
G1 X178.911 Y143.874
M400
