G90
G21
M83
SET_VELOCITY_LIMIT ACCEL=50000
G92 E0
G1 E-.3 F3600
G1 X187.012 Y142.001 Z5.4 F60000
G1 E.3 F2400
G1 F25953.656
G1 X189.012 Y142.001 E.06728
G1 X189.012 Y148.765 E.22755
G1 X187.012 Y148.765 E.06728
G1 X187.012 Y153.872 E.17179
G1 X189.012 Y153.872 E.06728
G1 X189.012 Y165.403 E.38788
G1 X188.447 Y165.968 E.02689
G1 X185.465 Y165.968 E.10031
G1 X185.465 Y163.968 E.06728
G1 X183.725 Y163.968 E.05855
G1 X183.725 Y165.968 E.06728
G1 X160.038 Y165.968 E.79683
G1 X159.472 Y165.403 E.02689
G1 X159.472 Y153.63 E.39602
G1 X161.472 Y153.63 E.06728
G1 X161.472 Y148.524 E.17179
G1 X159.472 Y148.524 E.06728
G1 X159.472 Y136.993 E.38788
G1 X160.038 Y136.428 E.02689
G1 X188.447 Y136.428 E.95569
G1 X189.012 Y136.993 E.02689
G1 X189.012 Y139.607 E.08793
G1 X187.012 Y139.607 E.06728
G1 X187.012 Y141.961 E.07919
G1 X186.595 Y142.418 F60000
G1 F25953.656
G1 X188.595 Y142.418 E.06728
G1 X188.595 Y148.348 E.19949
G1 X186.595 Y148.348 E.06728
G1 X186.595 Y154.289 E.19985
G1 X188.595 Y154.289 E.06728
G1 X188.595 Y165.23 E.36804
G1 X188.274 Y165.551 E.01527
G1 X185.882 Y165.551 E.08047
G1 X185.882 Y163.551 E.06728
G1 X183.308 Y163.551 E.08662
G1 X183.308 Y165.551 E.06728
G1 X160.21 Y165.551 E.77698
G1 X159.889 Y165.23 E.01527
G1 X159.889 Y154.047 E.37618
G1 X161.889 Y154.047 E.06728
G1 X161.889 Y148.106 E.19985
G1 X159.889 Y148.106 E.06728
G1 X159.889 Y137.166 E.36804
G1 X160.21 Y136.845 E.01527
G1 X188.274 Y136.845 E.94407
G1 X188.595 Y137.166 E.01527
G1 X188.595 Y139.19 E.06809
G1 X186.595 Y139.19 E.06728
G1 X186.595 Y142.378 E.10725
G1 E-.3 F3600
G1 X170.018 Y156.562 F60000
G1 E.3 F2400
G1 F25953.656
G1 X170.608 Y156.981 E.02436
G1 X171.279 Y157.352 E.02577
G1 X171.986 Y157.645 E.02577
G1 X172.721 Y157.856 E.0257
G1 X173.186 Y157.944 E.01592
G1 X173.86 Y158.017 E.02282
G1 X174.622 Y158.017 E.02564
G1 X175.01 Y157.985 E.01311
G1 X175.762 Y157.857 E.02566
G1 X176.498 Y157.645 E.02577
G1 X177.203 Y157.353 E.02564
G1 X177.549 Y157.174 E.01312
G1 X178.195 Y156.768 E.02566
G1 X178.794 Y156.291 E.02577
G1 X179.335 Y155.749 E.02577
G1 X179.813 Y155.151 E.02575
G1 X180.176 Y154.578 E.02282
G1 X180.397 Y154.16 E.01592
G1 X180.689 Y153.454 E.0257
G1 X180.901 Y152.718 E.02577
G1 X181.03 Y151.963 E.02577
G1 X181.073 Y151.201 E.02566
G1 X181.062 Y150.812 E.01311
G1 X180.976 Y150.054 E.02566
G1 X180.806 Y149.307 E.02577
G1 X180.554 Y148.587 E.02566
G1 X180.395 Y148.231 E.0131
G1 X180.026 Y147.564 E.02566
G1 X179.583 Y146.94 E.02575
G1 X179.133 Y146.432 E.02282
G1 X178.792 Y146.104 E.01592
G1 X178.195 Y145.628 E.02568
G1 X177.622 Y145.265 E.02282
G1 X177.204 Y145.043 E.01592
G1 X176.501 Y144.752 E.02559
G1 X176.13 Y144.634 E.01311
G1 X175.387 Y144.464 E.02566
G1 X174.626 Y144.378 E.02575
G1 X173.947 Y144.376 E.02282
G1 X173.476 Y144.411 E.01592
G1 X172.722 Y144.539 E.0257
G1 X171.986 Y144.751 E.02577
G1 X171.282 Y145.042 E.02564
G1 X170.936 Y145.221 E.01312
G1 X170.29 Y145.627 E.02566
G1 X169.691 Y146.105 E.02577
G1 X169.152 Y146.644 E.02566
G1 X168.9 Y146.942 E.01311
G1 X168.459 Y147.564 E.02566
G1 X168.088 Y148.234 E.02577
G1 X167.797 Y148.939 E.02566
G1 X167.678 Y149.31 E.01311
G1 X167.509 Y150.054 E.02566
G1 X167.423 Y150.815 E.02577
G1 X167.423 Y151.581 E.02577
G1 X167.508 Y152.342 E.02575
G1 X167.657 Y153.003 E.02282
G1 X167.796 Y153.456 E.01592
G1 X168.088 Y154.161 E.0257
G1 X168.459 Y154.831 E.02575
G1 X168.849 Y155.386 E.02282
G1 X169.151 Y155.751 E.01592
G1 X169.689 Y156.289 E.02559
G1 X169.985 Y156.539 E.01306
G1 X169.744 Y156.88 F60000
G1 F25953.656
G1 X170.386 Y157.335 E.02647
G1 X171.098 Y157.728 E.02734
G1 X171.848 Y158.039 E.02734
G1 X172.624 Y158.263 E.02715
G1 X173.124 Y158.357 E.01712
G1 X173.837 Y158.435 E.02412
G1 X174.64 Y158.435 E.027
G1 X175.063 Y158.399 E.01429
G1 X175.855 Y158.264 E.02704
G1 X176.636 Y158.039 E.02734
G1 X177.378 Y157.732 E.02702
G1 X177.756 Y157.537 E.0143
G1 X178.437 Y157.109 E.02704
G1 X179.072 Y156.602 E.02734
G1 X179.647 Y156.028 E.02734
G1 X180.153 Y155.393 E.0273
G1 X180.537 Y154.787 E.02412
G1 X180.775 Y154.337 E.01712
G1 X181.084 Y153.592 E.02715
G1 X181.309 Y152.811 E.02734
G1 X181.445 Y152.009 E.02734
G1 X181.49 Y151.207 E.02704
G1 X181.478 Y150.782 E.01429
G1 X181.388 Y149.984 E.02704
G1 X181.207 Y149.191 E.02734
G1 X180.942 Y148.433 E.02704
G1 X180.768 Y148.045 E.01429
G1 X180.38 Y147.342 E.02704
G1 X179.91 Y146.68 E.0273
G1 X179.434 Y146.143 E.02412
G1 X179.068 Y145.79 E.01712
G1 X178.438 Y145.287 E.02711
G1 X177.832 Y144.904 E.02412
G1 X177.382 Y144.665 E.01712
G1 X176.645 Y144.36 E.02684
G1 X176.24 Y144.231 E.01429
G1 X175.457 Y144.052 E.02704
G1 X174.65 Y143.961 E.0273
G1 X173.933 Y143.959 E.02412
G1 X173.425 Y143.996 E.01712
G1 X172.63 Y144.131 E.02715
G1 X171.849 Y144.356 E.02734
G1 X171.106 Y144.664 E.02702
G1 X170.729 Y144.859 E.0143
G1 X170.048 Y145.287 E.02704
G1 X169.413 Y145.793 E.02734
G1 X168.844 Y146.362 E.02704
G1 X168.57 Y146.686 E.01429
G1 X168.105 Y147.342 E.02704
G1 X167.712 Y148.053 E.02734
G1 X167.405 Y148.796 E.02704
G1 X167.276 Y149.2 E.01429
G1 X167.097 Y149.984 E.02704
G1 X167.006 Y150.791 E.02734
G1 X167.006 Y151.604 E.02734
G1 X167.097 Y152.411 E.0273
G1 X167.254 Y153.111 E.02412
G1 X167.403 Y153.597 E.01712
G1 X167.712 Y154.343 E.02715
G1 X168.105 Y155.053 E.0273
G1 X168.518 Y155.639 E.02412
G1 X168.842 Y156.032 E.01712
G1 X169.406 Y156.596 E.02684
G1 X169.713 Y156.855 E.0135
G1 X173.63 Y165.32 F60000
G1 F24766.062
G1 X171.882 Y165.32 E.06163
G1 X160.839 Y154.278 E.55053
G1 X160.12 Y154.278 E.02535
G1 X160.12 Y157.079 E.09874
G1 X166.82 Y150.378 E.33406
G1 X166.775 Y150.778 E.0142
G1 X166.775 Y151.617 E.02957
G1 X166.82 Y152.018 E.0142
G1 X160.12 Y145.317 E.33406
G1 X160.12 Y147.876 E.09022
G1 X161.081 Y147.876 E.03388
G1 X171.882 Y137.075 E.53847
G1 X168.362 Y137.075 E.12409
G1 X175.062 Y143.776 E.33406
G1 X174.663 Y143.731 E.01415
G1 X173.925 Y143.728 E.02604
G1 X173.434 Y143.765 E.01735
G1 X180.123 Y137.075 E.3335
G1 X176.603 Y137.075 E.12409
G1 X187.646 Y148.118 E.55053
G1 X188.365 Y148.118 E.02535
G1 X188.365 Y145.317 E.09874
G1 X181.676 Y152.006 E.33349
G1 X181.721 Y151.21 E.0281
G1 X181.708 Y150.766 E.01566
G1 X181.664 Y150.378 E.01377
G1 X188.365 Y157.079 E.33406
G1 X188.365 Y154.52 E.09022
G1 X187.404 Y154.52 E.03388
G1 X176.603 Y165.32 E.53847
G1 X180.123 Y165.32 E.12409
G1 X173.424 Y158.621 E.33399
G1 X173.825 Y158.665 E.0142
G1 X174.649 Y158.665 E.02908
G1 X175.051 Y158.631 E.0142
G1 X168.362 Y165.32 E.3335
G1 X163.64 Y165.32 E.16645
G1 X160.12 Y161.8 E.1755
G1 X160.12 Y165.134 E.11754
G1 X160.213 Y165.227 E.00464
G1 X168.962 Y156.478 E.43621
G1 X169.25 Y156.766 E.01435
G1 X169.589 Y157.052 E.01566
G1 X170.325 Y157.565 E.03162
G1 E-.3 F3600
G1 X178.156 Y144.836 F60000
G1 E.3 F2400
G1 F24766.062
G1 X178.571 Y145.099 E.01734
G1 X179.22 Y145.616 E.02924
G1 X179.527 Y145.913 E.01506
G1 X186.365 Y139.075 E.3409
G1 X186.365 Y138.96 E.00408
G1 X186.481 Y138.96 E.00408
G1 X188.272 Y137.168 E.0893
G1 X188.365 Y137.261 E.00464
G1 X188.365 Y138.96 E.05987
G1 X186.729 Y138.96 E.05767
G1 X184.845 Y137.075 E.09394
G1 X183.096 Y137.075 E.06163
G1 X165.388 Y137.075 F60000
G1 F24766.062
G1 X163.64 Y137.075 E.06163
G1 X160.12 Y140.595 E.1755
G1 X160.12 Y137.261 E.11754
G1 X160.213 Y137.168 E.00464
G1 X168.962 Y145.918 E.43621
G1 X169.259 Y145.621 E.01478
G1 X169.915 Y145.098 E.02957
G1 X170.33 Y144.838 E.01728
G1 E-.3 F3600
G1 X186.593 Y165.32 F60000
G1 E.3 F2400
G1 F24766.062
G1 X186.113 Y165.32 E.01694
G1 X186.113 Y164.052 E.0447
G1 X188.365 Y161.8 E.11228
G1 X188.365 Y165.134 E.11754
G1 X188.272 Y165.227 E.00464
G1 X179.522 Y156.478 E.43621
G1 X179.819 Y156.181 E.01478
G1 X180.341 Y155.527 E.02951
G1 X180.604 Y155.111 E.01734
G1 E-.3 F3600
G1 X96.77 Y157.119 F60000
G1 E.3 F2400
G1 F25953.656
G1 X96.764 Y157.117 E.0002
G1 X96.47 Y156.996 E.01069
G1 X96.213 Y156.818 E.01051
G1 X95.999 Y156.592 E.01049
G1 X95.834 Y156.321 E.01067
G1 X95.724 Y156.015 E.01095
G1 X95.672 Y155.677 E.01148
G1 X95.666 Y154.634 E.03509
G1 X95.561 Y154.672 E.00377
G1 X95.561 Y141.594 E.43993
G1 X95.662 Y141.629 E.00361
G1 X95.684 Y140.468 E.03907
G1 X95.724 Y140.253 E.00736
G1 X95.791 Y140.045 E.00736
G1 X95.883 Y139.852 E.00719
G1 X95.999 Y139.676 E.00708
G1 X96.136 Y139.52 E.007
G1 X96.294 Y139.384 E.00699
G1 X96.47 Y139.272 E.00702
G1 X96.662 Y139.184 E.0071
G1 X96.868 Y139.123 E.00723
G1 X97.092 Y139.087 E.00764
G1 X121.753 Y136.745 E.83334
G1 X122.724 Y136.68 E.03271
G1 X124.089 Y136.662 E.04593
G1 X125.063 Y136.701 E.0328
G1 X125.647 Y136.746 E.01968
G1 X126.619 Y136.854 E.03291
G1 X127.974 Y137.079 E.0462
G1 X129.313 Y137.388 E.04623
G1 X130.634 Y137.783 E.04639
G1 X131.477 Y138.083 E.03009
G1 X132.109 Y138.334 E.02289
G1 X133.192 Y138.817 E.03991
G1 X133.897 Y139.171 E.02654
G1 X134.509 Y139.505 E.02345
G1 X135.692 Y140.227 E.04663
G1 X136.74 Y140.957 E.04294
G1 X137.825 Y141.817 E.04658
G1 X138.788 Y142.68 E.04352
G1 X139.686 Y143.588 E.04296
G1 X140.539 Y144.559 E.04347
G1 X141.386 Y145.653 E.04653
G1 X142.161 Y146.796 E.04645
G1 X142.669 Y147.656 E.03363
G1 X142.753 Y147.912 E.00906
G1 X142.772 Y148.224 E.01049
G1 X142.717 Y148.492 E.00922
G1 X142.672 Y148.607 E.00415
G1 X142.329 Y149.204 E.02315
G1 X142.014 Y149.702 E.01982
G1 X141.394 Y150.605 E.03684
G1 X140.739 Y151.463 E.0363
G1 X139.971 Y152.368 E.03995
G1 X139.571 Y152.803 E.01987
G1 X138.73 Y153.643 E.04
G1 X137.996 Y154.306 E.03326
G1 X137.075 Y155.057 E.03998
G1 X136.28 Y155.643 E.03323
G1 X135.12 Y156.403 E.04667
G1 X134.439 Y156.802 E.02655
G1 X133.743 Y157.178 E.02659
G1 X133.033 Y157.526 E.02659
G1 X132.312 Y157.849 E.02657
G1 X131.581 Y158.146 E.02655
G1 X130.841 Y158.415 E.0265
G1 X129.901 Y158.716 E.0332
G1 X129.143 Y158.924 E.02645
G1 X128.377 Y159.106 E.02647
G1 X127.607 Y159.259 E.02643
G1 X126.832 Y159.385 E.02639
G1 X126.041 Y159.484 E.02681
G1 X125.276 Y159.553 E.02586
G1 X124.3 Y159.601 E.03285
G1 X123.13 Y159.602 E.03938
G1 X121.767 Y159.525 E.04591
G1 X97.096 Y157.181 E.83369
G1 X96.809 Y157.126 E.00982
G1 E-.3 F3600
G1 X98.284 Y149.272 F60000
G1 E.3 F2400
G1 F25953.656
G1 X98.321 Y149.262 E.00133
G1 X98.522 Y149.155 E.00764
G1 X98.697 Y149.017 E.00748
G1 X98.844 Y148.853 E.00743
G1 X98.959 Y148.664 E.00743
G1 X99.039 Y148.456 E.00749
G1 X99.078 Y148.243 E.0073
G1 X99.078 Y148.025 E.00734
G1 X99.038 Y147.809 E.00738
G1 X98.959 Y147.604 E.0074
G1 X98.841 Y147.411 E.0076
G1 X98.613 Y147.178 E.01098
G1 X98.331 Y147.011 E.01102
G1 X98.115 Y146.939 E.00767
G1 X97.894 Y146.906 E.00752
G1 X97.67 Y146.911 E.00752
G1 X97.446 Y146.954 E.00767
G1 X97.149 Y147.082 E.01088
G1 X96.964 Y147.214 E.00766
G1 X96.801 Y147.384 E.00792
G1 X96.64 Y147.649 E.01043
G1 X96.569 Y147.862 E.00757
G1 X96.538 Y148.079 E.00738
G1 X96.549 Y148.298 E.00736
G1 X96.599 Y148.512 E.00739
G1 X96.687 Y148.714 E.0074
G1 X96.813 Y148.9 E.00758
G1 X97.047 Y149.12 E.01081
G1 X97.243 Y149.236 E.00764
G1 X97.456 Y149.317 E.00767
G1 X97.777 Y149.365 E.01094
G1 X98.01 Y149.35 E.00783
G1 X98.245 Y149.283 E.00823
G1 E-.3 F3600
G1 X96.885 Y156.716 F60000
G1 E.3 F2400
G1 F25953.656
G1 X96.671 Y156.627 E.00779
G1 X96.486 Y156.5 E.00754
G1 X96.333 Y156.337 E.00753
G1 X96.213 Y156.14 E.00778
G1 X96.13 Y155.911 E.00817
G1 X96.089 Y155.644 E.00909
G1 X96.08 Y154.044 E.05382
G1 X95.978 Y154.081 E.00365
G1 X95.978 Y148.63 E.18336
G1 X96.177 Y148.588 E.00684
G1 X96.32 Y148.916 E.01202
G1 X96.494 Y149.173 E.01043
G1 X96.795 Y149.455 E.01391
G1 X97.061 Y149.613 E.01038
G1 X97.35 Y149.723 E.01039
G1 X97.76 Y149.784 E.01395
G1 X98.081 Y149.763 E.01083
G1 X98.478 Y149.651 E.0139
G1 X98.75 Y149.505 E.01038
G1 X98.984 Y149.323 E.00996
G1 X99.18 Y149.102 E.00995
G1 X99.334 Y148.849 E.00996
G1 X99.442 Y148.57 E.01006
G1 X99.495 Y148.281 E.00989
G1 X99.495 Y147.986 E.00993
G1 X99.441 Y147.695 E.00997
G1 X99.334 Y147.419 E.00995
G1 X99.172 Y147.153 E.01045
G1 X98.873 Y146.847 E.01442
G1 X98.505 Y146.629 E.01437
G1 X98.212 Y146.531 E.01039
G1 X97.92 Y146.488 E.00994
G1 X97.626 Y146.494 E.00991
G1 X97.323 Y146.553 E.01037
G1 X96.943 Y146.716 E.01392
G1 X96.69 Y146.898 E.01046
G1 X96.468 Y147.128 E.01076
G1 X96.259 Y147.473 E.01357
G1 X96.188 Y147.686 E.00757
G1 X95.978 Y147.652 E.00716
G1 X95.978 Y142.18 E.18407
G1 X96.068 Y142.212 E.00322
G1 X96.1 Y140.51 E.05724
G1 X96.129 Y140.355 E.0053
G1 X96.247 Y140.058 E.01076
G1 X96.331 Y139.93 E.00516
G1 X96.543 Y139.72 E.01003
G1 X96.809 Y139.576 E.01017
G1 X97.145 Y139.501 E.01157
G1 X121.787 Y137.161 E.8327
G1 X122.74 Y137.097 E.03214
G1 X124.083 Y137.079 E.04518
G1 X125.039 Y137.118 E.03218
G1 X125.608 Y137.161 E.01919
G1 X126.562 Y137.267 E.03229
G1 X127.893 Y137.488 E.04538
G1 X129.206 Y137.792 E.04535
G1 X130.505 Y138.179 E.04559
G1 X131.33 Y138.473 E.02947
G1 X131.947 Y138.718 E.02234
G1 X133.014 Y139.194 E.03929
G1 X133.704 Y139.541 E.02598
G1 X134.3 Y139.867 E.02287
G1 X135.464 Y140.577 E.04586
G1 X136.491 Y141.292 E.04209
G1 X137.556 Y142.136 E.04572
G1 X138.5 Y142.983 E.04267
G1 X139.381 Y143.873 E.04212
G1 X140.217 Y144.825 E.04262
G1 X141.048 Y145.898 E.04566
G1 X141.808 Y147.019 E.04557
G1 X142.287 Y147.829 E.03166
G1 X142.343 Y148.002 E.0061
G1 X142.357 Y148.123 E.00411
G1 X142.315 Y148.374 E.00857
G1 X141.971 Y148.988 E.02367
G1 X141.666 Y149.472 E.01927
G1 X141.056 Y150.36 E.03622
G1 X140.414 Y151.201 E.03559
G1 X139.658 Y152.092 E.0393
G1 X139.27 Y152.514 E.01929
G1 X138.442 Y153.34 E.03935
G1 X137.724 Y153.989 E.03256
G1 X136.819 Y154.727 E.03928
G1 X136.042 Y155.3 E.03249
G1 X134.9 Y156.049 E.04593
G1 X134.234 Y156.439 E.02595
G1 X133.552 Y156.807 E.02608
G1 X132.856 Y157.149 E.02608
G1 X132.149 Y157.465 E.02606
G1 X131.431 Y157.756 E.02605
G1 X130.706 Y158.02 E.02597
G1 X129.782 Y158.316 E.03264
G1 X129.039 Y158.52 E.02591
G1 X128.288 Y158.698 E.02596
G1 X127.532 Y158.849 E.02592
G1 X126.773 Y158.972 E.02589
G1 X125.997 Y159.069 E.02631
G1 X125.247 Y159.137 E.02533
G1 X124.29 Y159.184 E.03223
G1 X123.142 Y159.185 E.03863
G1 X121.799 Y159.109 E.04524
G1 X97.155 Y156.768 E.83274
G1 X96.924 Y156.723 E.00792
G1 X96.487 Y149.486 F60000
G1 X96.186 Y149.249 E.00224
G1 X96.186 Y147.077
G1 X96.343 Y146.921 E.00105
G1 E-.3 F3600
G1 X98.856 Y149.71 F60000
G1 E.3 F2400
G1 F24766.062
G1 X98.565 Y149.866 E.01161
G1 X98.12 Y149.992 E.0163
G1 X97.75 Y150.016 E.01308
G1 X97.291 Y149.947 E.01637
G1 X97.178 Y149.904 E.00427
G1 X96.208 Y150.873 E.04834
G1 X96.208 Y153.636 E.0974
G1 X96.295 Y153.723 E.00433
G1 X96.308 Y153.719 E.00049
G1 X96.308 Y153.737 E.00064
G1 X99.313 Y156.742 E.14982
G1 X98.645 Y156.678 E.02367
G1 X117.526 Y137.797 E.94132
G1 X121.226 Y137.446 E.13101
G1 X137.281 Y153.501 E.80046
G1 X137.052 Y153.707 E.01088
G1 X136.181 Y154.408 E.03938
G1 X135.258 Y155.078 E.04022
G1 X135.477 Y155.395 E.01359
G1 X134.778 Y155.853 E.02944
G1 X134.121 Y156.238 E.02685
G1 X133.446 Y156.602 E.02703
G1 X132.565 Y157.026 E.03449
G1 X113.699 Y138.161 E.94057
G1 X111.958 Y138.326 E.06163
G1 X111.958 Y157.943 F60000
G1 F24766.062
G1 X113.699 Y158.108 E.06163
G1 X132.562 Y139.245 E.94043
G1 X133.597 Y139.745 E.04052
G1 X134.185 Y140.066 E.02363
G1 X135.338 Y140.77 E.04762
G1 X135.906 Y141.166 E.02441
G1 X135.68 Y141.468 E.0133
G1 X137.284 Y142.764 E.07269
G1 X121.225 Y158.823 E.80063
G1 X117.527 Y158.472 E.13098
G1 X98.645 Y139.59 E.94135
G1 X99.313 Y139.527 E.02367
G1 X96.208 Y142.632 E.15481
G1 X96.208 Y145.395 E.0974
G1 X97.178 Y146.365 E.04835
G1 X97.255 Y146.332 E.00294
G1 X97.601 Y146.264 E.01244
G1 X97.934 Y146.257 E.01176
G1 X98.266 Y146.306 E.01182
G1 X98.602 Y146.418 E.01247
G1 X98.851 Y146.566 E.01021
G1 X124.375 Y158.949 F60000
G1 F24766.062
G1 X125.231 Y158.907 E.03019
G1 X126.119 Y158.822 E.03144
G1 X106.172 Y138.875 E.99444
G1 X108.42 Y138.662 E.0796
G1 X99.604 Y147.478 E.43951
G1 X99.664 Y147.631 E.00581
G1 X99.726 Y147.965 E.01196
G1 X99.726 Y148.302 E.0119
G1 X99.665 Y148.633 E.01186
G1 X99.604 Y148.791 E.00595
G1 X108.42 Y157.607 E.43953
G1 X106.172 Y157.393 E.07961
G1 X126.116 Y137.449 E.99431
G1 X126.53 Y137.495 E.01471
G1 X127.848 Y137.714 E.04708
G1 X129.147 Y138.015 E.04702
G1 X130.415 Y138.393 E.04663
G1 X141.078 Y149.056 E.53161
G1 X141.503 Y148.378 E.02821
G1 X141.576 Y148.171 E.00775
G1 X141.556 Y148.013 E.00562
G1 X141.493 Y147.872 E.00542
G1 X141.083 Y147.206 E.02756
G1 X130.42 Y157.87 E.53164
G1 X129.716 Y158.095 E.02605
G1 X128.741 Y158.354 E.03558
G1 X136.121 Y141.411 F60000
G1 F31832.007
G1 X137.35 Y142.381 E.04292
G1 X138.366 Y143.308 E.03774
G1 X139.137 Y144.1 E.03031
G1 X140.035 Y145.134 E.03756
G1 X140.845 Y146.204 E.03681
G1 X141.505 Y147.195 E.03265
G1 X141.891 Y147.863 E.02116
G1 X141.963 Y148.175 E.0088
G1 X141.816 Y148.553 E.01113
G1 X141.047 Y149.768 E.03943
G1 X140.441 Y150.61 E.02845
G1 X140.038 Y151.127 E.018
G1 X139.3 Y151.992 E.03117
G1 X138.517 Y152.809 E.03105
G1 X138.114 Y153.202 E.01543
G1 X137.513 Y153.743 E.02218
G1 X136.624 Y154.475 E.03159
G1 X135.732 Y155.131 E.03035
G92 E0
G1 E-.3 F3600
G1 X187.012 Y142.139 Z5.6 F60000
G1 E.3 F2400
G1 F25953.656
G1 X189.012 Y142.139 E.06728
G1 X189.012 Y148.419 E.21124
G1 X187.012 Y148.419 E.06728
G1 X187.012 Y154.219 E.1951
G1 X189.012 Y154.219 E.06728
G1 X189.012 Y165.603 E.38296
G1 X188.647 Y165.968 E.01738
G1 X185.608 Y165.968 E.10225
G1 X185.608 Y163.968 E.06728
G1 X183.576 Y163.968 E.06836
G1 X183.576 Y165.968 E.06728
G1 X159.838 Y165.968 E.79854
G1 X159.472 Y165.603 E.01738
G1 X159.472 Y153.977 E.39109
G1 X161.472 Y153.977 E.06728
G1 X161.472 Y148.177 E.1951
G1 X159.472 Y148.177 E.06728
G1 X159.472 Y136.793 E.38296
G1 X159.838 Y136.428 E.01738
G1 X188.647 Y136.428 E.96915
G1 X189.012 Y136.793 E.01738
G1 X189.012 Y139.473 E.09016
G1 X187.012 Y139.473 E.06728
G1 X187.012 Y140.805 E.04481
G1 X189.012 Y140.805 E.06728
G1 X189.012 Y140.885 E.00267
G1 X187.012 Y140.885 E.06728
G1 X187.012 Y142.099 E.04086
G1 X186.595 Y142.557 F60000
G1 F25953.656
G1 X188.595 Y142.557 E.06728
G1 X188.595 Y148.002 E.18318
G1 X186.595 Y148.002 E.06728
G1 X186.595 Y154.636 E.22316
G1 X188.595 Y154.636 E.06728
G1 X188.595 Y165.43 E.36311
G1 X188.474 Y165.551 E.00575
G1 X186.025 Y165.551 E.0824
G1 X186.025 Y163.551 E.06728
G1 X183.158 Y163.551 E.09642
G1 X183.158 Y165.551 E.06728
G1 X160.01 Y165.551 E.7787
G1 X159.889 Y165.43 E.00575
G1 X159.889 Y154.394 E.37125
G1 X161.889 Y154.394 E.06728
G1 X161.889 Y147.76 E.22316
G1 X159.889 Y147.76 E.06728
G1 X159.889 Y136.966 E.36311
G1 X160.01 Y136.845 E.00575
G1 X188.474 Y136.845 E.95752
G1 X188.595 Y136.966 E.00575
G1 X188.595 Y139.056 E.07032
G1 X186.595 Y139.056 E.06728
G1 X186.595 Y142.517 E.1164
G1 E-.3 F3600
G1 X170.046 Y156.582 F60000
G1 E.3 F2400
G1 F25953.656
G1 X170.608 Y156.981 E.02321
G1 X171.279 Y157.352 E.02577
G1 X171.986 Y157.645 E.02577
G1 X172.72 Y157.856 E.02569
G1 X173.167 Y157.941 E.01529
G1 X173.86 Y158.017 E.02345
G1 X174.622 Y158.017 E.02565
G1 X175.01 Y157.985 E.01311
G1 X175.762 Y157.857 E.02566
G1 X176.498 Y157.645 E.02577
G1 X177.203 Y157.353 E.02564
G1 X177.549 Y157.174 E.01312
G1 X178.195 Y156.768 E.02566
G1 X178.794 Y156.291 E.02577
G1 X179.335 Y155.749 E.02577
G1 X179.813 Y155.15 E.02577
G1 X180.22 Y154.502 E.02577
G1 X180.551 Y153.815 E.02566
G1 X180.69 Y153.451 E.0131
G1 X180.901 Y152.718 E.02566
G1 X181.03 Y151.963 E.02577
G1 X181.073 Y151.201 E.02566
G1 X181.062 Y150.812 E.01311
G1 X180.976 Y150.054 E.02566
G1 X180.806 Y149.307 E.02577
G1 X180.554 Y148.587 E.02566
G1 X180.395 Y148.231 E.01311
G1 X180.026 Y147.564 E.02566
G1 X179.584 Y146.942 E.02566
G1 X179.333 Y146.644 E.01311
G1 X178.794 Y146.105 E.02566
G1 X178.195 Y145.627 E.02577
G1 X177.549 Y145.221 E.02566
G1 X177.203 Y145.043 E.01311
G1 X176.501 Y144.752 E.02555
G1 X176.13 Y144.634 E.01311
G1 X175.387 Y144.464 E.02566
G1 X174.626 Y144.378 E.02576
G1 X173.929 Y144.376 E.02345
G1 X173.475 Y144.411 E.01529
G1 X172.722 Y144.539 E.02569
G1 X171.986 Y144.751 E.02577
G1 X171.282 Y145.042 E.02564
G1 X170.936 Y145.221 E.01312
G1 X170.29 Y145.627 E.02566
G1 X169.691 Y146.105 E.02577
G1 X169.152 Y146.644 E.02566
G1 X168.9 Y146.942 E.01311
G1 X168.459 Y147.564 E.02566
G1 X168.088 Y148.234 E.02577
G1 X167.797 Y148.939 E.02566
G1 X167.678 Y149.31 E.01311
G1 X167.509 Y150.054 E.02566
G1 X167.423 Y150.815 E.02577
G1 X167.423 Y151.581 E.02577
G1 X167.508 Y152.342 E.02576
G1 X167.662 Y153.022 E.02345
G1 X167.796 Y153.456 E.01529
G1 X168.088 Y154.161 E.02569
G1 X168.459 Y154.832 E.02576
G1 X168.861 Y155.401 E.02345
G1 X169.151 Y155.751 E.01529
G1 X169.689 Y156.289 E.02558
G1 X169.986 Y156.54 E.01311
G1 X170.013 Y156.559 E.0011
G1 X169.744 Y156.88 F60000
G1 F25953.656
G1 X170.386 Y157.335 E.02647
G1 X171.098 Y157.728 E.02734
G1 X171.848 Y158.039 E.02734
G1 X172.623 Y158.262 E.02713
G1 X173.105 Y158.354 E.01649
G1 X173.837 Y158.435 E.02477
G1 X174.64 Y158.435 E.02701
G1 X175.063 Y158.399 E.01429
G1 X175.855 Y158.264 E.02704
G1 X176.636 Y158.039 E.02734
G1 X177.378 Y157.732 E.02702
G1 X177.756 Y157.537 E.0143
G1 X178.437 Y157.109 E.02704
G1 X179.072 Y156.602 E.02734
G1 X179.647 Y156.028 E.02734
G1 X180.154 Y155.392 E.02734
G1 X180.586 Y154.704 E.02734
G1 X180.935 Y153.98 E.02704
G1 X181.086 Y153.583 E.01429
G1 X181.309 Y152.811 E.02704
G1 X181.445 Y152.009 E.02734
G1 X181.49 Y151.207 E.02704
G1 X181.478 Y150.782 E.01429
G1 X181.388 Y149.984 E.02704
G1 X181.207 Y149.191 E.02734
G1 X180.942 Y148.433 E.02704
G1 X180.768 Y148.045 E.01429
G1 X180.38 Y147.342 E.02704
G1 X179.914 Y146.686 E.02704
G1 X179.64 Y146.362 E.01429
G1 X179.072 Y145.793 E.02704
G1 X178.437 Y145.287 E.02734
G1 X177.756 Y144.859 E.02704
G1 X177.379 Y144.664 E.01429
G1 X176.645 Y144.36 E.02673
G1 X176.24 Y144.231 E.01429
G1 X175.456 Y144.052 E.02704
G1 X174.65 Y143.961 E.02731
G1 X173.913 Y143.959 E.02477
G1 X173.425 Y143.996 E.01649
G1 X172.63 Y144.131 E.02713
G1 X171.848 Y144.356 E.02734
G1 X171.106 Y144.664 E.02702
G1 X170.729 Y144.859 E.0143
G1 X170.048 Y145.287 E.02704
G1 X169.413 Y145.793 E.02734
G1 X168.844 Y146.362 E.02704
G1 X168.57 Y146.686 E.01429
G1 X168.105 Y147.342 E.02704
G1 X167.712 Y148.053 E.02734
G1 X167.405 Y148.796 E.02704
G1 X167.276 Y149.2 E.01429
G1 X167.097 Y149.984 E.02704
G1 X167.006 Y150.791 E.02734
G1 X167.006 Y151.604 E.02734
G1 X167.097 Y152.411 E.02731
G1 X167.258 Y153.129 E.02477
G1 X167.403 Y153.598 E.01649
G1 X167.712 Y154.343 E.02713
G1 X168.105 Y155.053 E.02731
G1 X168.529 Y155.655 E.02477
G1 X168.842 Y156.032 E.01649
G1 X169.406 Y156.596 E.02682
G1 X169.713 Y156.855 E.01351
G1 X170.325 Y157.565 F60000
G1 F24766.062
G1 X169.589 Y157.052 E.03162
G1 X169.25 Y156.766 E.01566
G1 X168.962 Y156.478 E.01435
G1 X160.12 Y165.32 E.44085
G1 X160.12 Y161.8 E.12409
G1 X163.64 Y165.32 E.1755
G1 X168.362 Y165.32 E.16645
G1 X175.051 Y158.631 E.3335
G1 X174.649 Y158.665 E.0142
G1 X173.824 Y158.665 E.02909
G1 X173.424 Y158.621 E.0142
G1 X180.123 Y165.32 E.334
G1 X176.603 Y165.32 E.12409
G1 X187.057 Y154.866 E.5212
G1 X188.365 Y154.866 E.04609
G1 X188.365 Y157.079 E.078
G1 X181.664 Y150.378 E.33406
G1 X181.708 Y150.766 E.01377
G1 X181.721 Y151.21 E.01566
G1 X181.676 Y152.006 E.0281
G1 X188.365 Y145.317 E.33348
G1 X188.365 Y147.772 E.08653
G1 X187.299 Y147.772 E.03756
G1 X176.603 Y137.075 E.53326
G1 X180.123 Y137.075 E.12409
G1 X173.434 Y143.765 E.3335
G1 X173.905 Y143.729 E.01665
G1 X174.663 Y143.731 E.02672
G1 X175.062 Y143.776 E.01416
G1 X168.362 Y137.075 E.33406
G1 X171.882 Y137.075 E.12409
G1 X161.427 Y147.53 E.5212
G1 X160.12 Y147.53 E.04609
G1 X160.12 Y145.317 E.078
G1 X166.82 Y152.018 E.33406
G1 X166.775 Y151.617 E.0142
G1 X166.775 Y150.778 E.02957
G1 X166.82 Y150.378 E.0142
G1 X160.12 Y157.079 E.33406
G1 X160.12 Y154.624 E.08653
G1 X161.185 Y154.624 E.03756
G1 X171.882 Y165.32 E.53326
G1 X173.63 Y165.32 E.06163
G1 X188.365 Y160.052 F60000
G1 F24766.062
G1 X188.365 Y161.8 E.06163
G1 X186.255 Y163.91 E.10518
G1 X186.255 Y165.32 E.04972
G1 X188.365 Y165.32 E.07438
G1 X179.522 Y156.478 E.44085
G1 X179.819 Y156.181 E.01478
G1 X180.342 Y155.526 E.02957
G1 X180.603 Y155.11 E.01728
G1 E-.3 F3600
G1 X170.33 Y144.838 F60000
G1 E.3 F2400
G1 F24766.062
G1 X169.915 Y145.098 E.01728
G1 X169.259 Y145.621 E.02957
G1 X168.962 Y145.918 E.01478
G1 X160.12 Y137.075 E.44085
G1 X160.12 Y140.595 E.12409
G1 X163.64 Y137.075 E.1755
G1 X165.388 Y137.075 E.06163
G1 X183.096 Y137.075 F60000
G1 F24766.062
G1 X184.845 Y137.075 E.06163
G1 X186.595 Y138.826 E.08727
G1 X186.614 Y138.826 E.00067
G1 X188.365 Y137.075 E.08727
G1 X186.617 Y137.075 E.06163
G1 X186.365 Y140.824 F60000
G1 F24766.062
G1 X186.365 Y139.075 E.06163
G1 X179.522 Y145.918 E.34113
G1 X179.226 Y145.621 E.01478
G1 X178.57 Y145.098 E.02957
G1 X178.155 Y144.838 E.01728
G1 E-.3 F3600
G1 X96.685 Y157.211 F60000
G1 E.3 F2400
G1 F25953.656
G1 X96.683 Y157.21 E.00004
G1 X96.39 Y157.088 E.0107
G1 X96.132 Y156.911 E.01051
G1 X95.918 Y156.683 E.01053
G1 X95.753 Y156.412 E.01066
G1 X95.643 Y156.105 E.01097
G1 X95.591 Y155.767 E.01152
G1 X95.585 Y154.852 E.03077
G1 X95.479 Y154.863 E.00361
G1 X95.479 Y142.928 E.4015
G1 X95.587 Y142.893 E.00384
G1 X95.588 Y142.561 E.01117
G1 X95.587 Y142.221 E.01144
G1 X95.479 Y142.2 E.00372
G1 X95.479 Y141.402 E.02687
G1 X95.582 Y141.41 E.00348
G1 X95.602 Y140.379 E.03472
G1 X95.642 Y140.163 E.00739
G1 X95.71 Y139.954 E.00737
G1 X95.802 Y139.761 E.00719
G1 X95.917 Y139.585 E.0071
G1 X96.055 Y139.428 E.00702
G1 X96.213 Y139.292 E.00701
G1 X96.389 Y139.18 E.00703
G1 X96.581 Y139.092 E.00711
G1 X96.787 Y139.03 E.00721
G1 X97.012 Y138.994 E.00767
G1 X121.723 Y136.622 E.83511
G1 X122.308 Y136.576 E.01974
G1 X123.288 Y136.537 E.03299
G1 X124.468 Y136.545 E.03969
G1 X125.846 Y136.636 E.04648
G1 X127.042 Y136.785 E.04053
G1 X127.806 Y136.914 E.02605
G1 X128.582 Y137.074 E.02667
G1 X129.739 Y137.367 E.04014
G1 X131.069 Y137.788 E.04693
G1 X132.355 Y138.285 E.04637
G1 X133.641 Y138.879 E.04765
G1 X134.873 Y139.545 E.04712
G1 X135.901 Y140.184 E.04071
G1 X137.046 Y140.993 E.04717
G1 X138.133 Y141.868 E.04692
G1 X139.029 Y142.681 E.04073
G1 X140.008 Y143.685 E.04717
G1 X140.921 Y144.748 E.04715
G1 X141.759 Y145.859 E.0468
G1 X142.53 Y147.027 E.04709
G1 X142.821 Y147.518 E.01922
G1 X142.939 Y147.779 E.00962
G1 X142.994 Y148.064 E.00977
G1 X142.985 Y148.298 E.00786
G1 X142.941 Y148.485 E.00647
G1 X142.822 Y148.748 E.00973
G1 X142.224 Y149.724 E.03851
G1 X141.892 Y150.219 E.02004
G1 X141.182 Y151.191 E.04049
G1 X140.809 Y151.659 E.02014
G1 X140.157 Y152.419 E.03369
G1 X139.329 Y153.293 E.04047
G1 X138.453 Y154.12 E.04053
G1 X138.002 Y154.512 E.02012
G1 X137.059 Y155.266 E.04059
G1 X136.412 Y155.737 E.02694
G1 X135.747 Y156.185 E.02696
G1 X135.067 Y156.608 E.02696
G1 X134.371 Y157.006 E.02696
G1 X133.662 Y157.379 E.02695
G1 X132.941 Y157.725 E.02691
G1 X132.208 Y158.044 E.0269
G1 X131.277 Y158.406 E.03361
G1 X130.522 Y158.664 E.02683
G1 X129.76 Y158.895 E.0268
G1 X128.797 Y159.144 E.03344
G1 X127.415 Y159.424 E.04745
G1 X126.848 Y159.513 E.01931
G1 X125.864 Y159.631 E.03334
G1 X125.077 Y159.693 E.02656
G1 X124.29 Y159.728 E.02647
G1 X122.912 Y159.722 E.04638
G1 X121.737 Y159.648 E.03961
G1 X97.016 Y157.275 E.83544
G1 X96.724 Y157.218 E.00999
G1 E-.3 F3600
G1 X98.256 Y149.264 F60000
G1 E.3 F2400
G1 F25953.656
G1 X98.263 Y149.262 E.00024
G1 X98.463 Y149.155 E.00764
G1 X98.639 Y149.017 E.00748
G1 X98.785 Y148.853 E.00743
G1 X98.9 Y148.664 E.00743
G1 X98.981 Y148.454 E.00757
G1 X99.02 Y148.243 E.00721
G1 X99.02 Y148.025 E.00734
G1 X98.98 Y147.809 E.00739
G1 X98.9 Y147.604 E.0074
G1 X98.783 Y147.411 E.0076
G1 X98.555 Y147.178 E.01098
G1 X98.273 Y147.011 E.01102
G1 X98.056 Y146.939 E.00767
G1 X97.835 Y146.906 E.00752
G1 X97.612 Y146.911 E.00752
G1 X97.388 Y146.954 E.00767
G1 X97.091 Y147.082 E.01088
G1 X96.905 Y147.214 E.00766
G1 X96.741 Y147.386 E.008
G1 X96.581 Y147.649 E.01035
G1 X96.51 Y147.862 E.00756
G1 X96.48 Y148.079 E.00738
G1 X96.49 Y148.298 E.00736
G1 X96.54 Y148.512 E.00739
G1 X96.628 Y148.714 E.0074
G1 X96.755 Y148.9 E.00758
G1 X96.989 Y149.12 E.01081
G1 X97.184 Y149.236 E.00764
G1 X97.397 Y149.317 E.00767
G1 X97.719 Y149.365 E.01094
G1 X97.951 Y149.35 E.00783
G1 X98.218 Y149.275 E.00932
G1 E-.3 F3600
G1 X96.805 Y156.809 F60000
G1 E.3 F2400
G1 F25953.656
G1 X96.591 Y156.72 E.0078
G1 X96.406 Y156.592 E.00756
G1 X96.251 Y156.428 E.00758
G1 X96.131 Y156.232 E.00775
G1 X96.049 Y156.003 E.00819
G1 X96.008 Y155.734 E.00915
G1 X96 Y154.392 E.04515
G1 X95.896 Y154.402 E.00352
G1 X95.896 Y148.561 E.1965
G1 X96.117 Y148.535 E.00751
G1 X96.143 Y148.644 E.00376
G1 X96.262 Y148.916 E.00997
G1 X96.435 Y149.173 E.01043
G1 X96.737 Y149.455 E.01391
G1 X97.002 Y149.613 E.01038
G1 X97.291 Y149.723 E.01039
G1 X97.701 Y149.784 E.01395
G1 X98.022 Y149.763 E.01083
G1 X98.42 Y149.651 E.0139
G1 X98.692 Y149.505 E.01038
G1 X98.925 Y149.323 E.00996
G1 X99.122 Y149.102 E.00995
G1 X99.276 Y148.849 E.00998
G1 X99.384 Y148.567 E.01014
G1 X99.437 Y148.281 E.00978
G1 X99.437 Y147.986 E.00992
G1 X99.383 Y147.695 E.00998
G1 X99.276 Y147.419 E.00996
G1 X99.114 Y147.153 E.01045
G1 X98.814 Y146.847 E.01442
G1 X98.447 Y146.629 E.01437
G1 X98.154 Y146.531 E.01039
G1 X97.861 Y146.488 E.00994
G1 X97.567 Y146.494 E.0099
G1 X97.264 Y146.553 E.01037
G1 X96.884 Y146.716 E.01392
G1 X96.631 Y146.898 E.01047
G1 X96.408 Y147.13 E.01084
G1 X96.201 Y147.473 E.01347
G1 X96.106 Y147.757 E.01007
G1 X95.896 Y147.723 E.00716
G1 X95.896 Y143.234 E.15101
G1 X96.004 Y143.2 E.00383
G1 X96.004 Y141.877 E.04448
G1 X95.99 Y141.875 E.00049
G1 X96.018 Y140.421 E.0489
G1 X96.098 Y140.108 E.01085
G1 X96.166 Y139.966 E.0053
G1 X96.25 Y139.838 E.00515
G1 X96.463 Y139.628 E.01006
G1 X96.729 Y139.483 E.0102
G1 X97.065 Y139.408 E.01158
G1 X121.759 Y137.037 E.83454
G1 X122.333 Y136.993 E.01935
G1 X123.295 Y136.954 E.03239
G1 X124.453 Y136.962 E.03894
G1 X125.807 Y137.052 E.04567
G1 X126.982 Y137.197 E.03982
G1 X127.729 Y137.324 E.02548
G1 X128.489 Y137.48 E.02611
G1 X129.625 Y137.768 E.03942
G1 X130.931 Y138.182 E.04608
G1 X132.192 Y138.67 E.04549
G1 X133.454 Y139.252 E.04676
G1 X134.663 Y139.906 E.04626
G1 X135.67 Y140.532 E.03987
G1 X136.795 Y141.326 E.04632
G1 X137.861 Y142.185 E.04606
G1 X138.739 Y142.982 E.03989
G1 X139.701 Y143.966 E.0463
G1 X140.596 Y145.01 E.04625
G1 X141.418 Y146.099 E.04591
G1 X142.176 Y147.248 E.04631
G1 X142.451 Y147.711 E.0181
G1 X142.539 Y147.906 E.00718
G1 X142.575 Y148.096 E.00652
G1 X142.57 Y148.242 E.00491
G1 X142.544 Y148.35 E.00374
G1 X142.453 Y148.553 E.00748
G1 X141.873 Y149.499 E.03734
G1 X141.55 Y149.98 E.01947
G1 X140.85 Y150.938 E.03992
G1 X140.487 Y151.393 E.01959
G1 X139.847 Y152.14 E.03309
G1 X139.034 Y152.997 E.03974
G1 X138.173 Y153.811 E.03985
G1 X137.734 Y154.192 E.01954
G1 X136.806 Y154.934 E.03999
G1 X136.173 Y155.396 E.02637
G1 X135.521 Y155.835 E.02644
G1 X134.853 Y156.25 E.02645
G1 X134.171 Y156.641 E.02645
G1 X133.475 Y157.006 E.02644
G1 X132.767 Y157.345 E.0264
G1 X132.049 Y157.659 E.02636
G1 X131.133 Y158.014 E.03303
G1 X130.394 Y158.267 E.02629
G1 X129.647 Y158.493 E.02626
G1 X128.704 Y158.738 E.03278
G1 X127.341 Y159.014 E.04676
G1 X126.791 Y159.1 E.01875
G1 X125.822 Y159.216 E.03281
G1 X125.051 Y159.277 E.02603
G1 X124.282 Y159.311 E.02589
G1 X122.926 Y159.305 E.04563
G1 X121.77 Y159.232 E.03897
G1 X97.075 Y156.861 E.83454
G1 X96.844 Y156.817 E.00793
G1 X96.429 Y149.486 F60000
G1 X96.104 Y149.229 E.00249
G1 X96.104 Y147.089
G1 X96.286 Y146.92 E.00125
G1 X98.831 Y146.589
G1 F24766.062
G1 X98.543 Y146.418 E.01178
G1 X98.208 Y146.306 E.01247
G1 X97.876 Y146.257 E.01182
G1 X97.542 Y146.264 E.01176
G1 X97.16 Y146.347 E.01378
G1 X96.126 Y145.313 E.05156
G1 X96.126 Y143.403 E.06733
G1 X96.235 Y143.369 E.00402
G1 X96.235 Y142.605 E.02691
G1 X99.427 Y139.413 E.15917
G1 X98.552 Y139.497 E.03101
G1 X117.661 Y158.606 E.95272
G1 X121.111 Y158.938 E.12216
G1 X137.402 Y142.646 E.8122
G1 X135.997 Y141.506 E.06378
G1 X136.225 Y141.205 E.01332
G1 X135.543 Y140.724 E.02942
G1 X134.548 Y140.106 E.0413
G1 X133.351 Y139.458 E.04797
G1 X132.665 Y139.142 E.02663
G1 X113.591 Y158.216 E.95094
G1 X111.851 Y158.048 E.06163
G1 X111.851 Y138.22 F60000
G1 F24766.062
G1 X113.591 Y138.053 E.06163
G1 X132.673 Y157.135 E.95133
G1 X133.371 Y156.8 E.0273
G1 X134.06 Y156.439 E.02741
G1 X134.735 Y156.052 E.02742
G1 X135.396 Y155.642 E.02742
G1 X136.232 Y155.067 E.03577
G1 X135.997 Y154.761 E.01362
G1 X137.398 Y153.618 E.06372
G1 X121.111 Y137.331 E.81201
G1 X117.661 Y137.662 E.12219
G1 X98.552 Y156.772 E.9527
G1 X99.427 Y156.856 E.03102
G1 X96.126 Y153.554 E.16459
G1 X96.126 Y150.956 E.09161
G1 X97.162 Y149.92 E.05163
G1 X97.232 Y149.947 E.00267
G1 X97.692 Y150.016 E.01637
G1 X98.062 Y149.992 E.01308
G1 X98.507 Y149.866 E.0163
G1 X98.835 Y149.686 E.0132
G1 E-.3 F3600
G1 X95.733 Y142.037 F60000
G1 E.3 F2400
G1 F60000
G1 X95.737 Y141.633 E.00319
G1 X124.487 Y137.196
G1 F24766.062
G1 X125.785 Y137.281 E.04589
G1 X126.229 Y137.336 E.01575
G1 X106.071 Y157.494 E1.00495
G1 X108.544 Y157.731 E.08758
G1 X99.561 Y148.748 E.44784
G1 X99.607 Y148.63 E.00447
G1 X99.667 Y148.302 E.01174
G1 X99.667 Y147.965 E.01188
G1 X99.605 Y147.631 E.01197
G1 X99.562 Y147.52 E.00423
G1 X108.544 Y138.537 E.44781
G1 X106.071 Y138.775 E.08757
G1 X126.231 Y158.935 E1.00508
G1 X127.301 Y158.787 E.03805
G1 X128.652 Y158.513 E.0486
G1 X129.585 Y158.272 E.03397
G1 X130.206 Y158.083 E.0229
G1 X141.219 Y147.071 E.54903
G1 X141.721 Y147.875 E.03342
G1 X141.78 Y147.999 E.00484
G1 X141.801 Y148.094 E.00343
G1 X141.787 Y148.243 E.00526
G1 X141.716 Y148.401 E.00613
G1 X141.222 Y149.2 E.03312
G1 X130.22 Y138.198 E.5485
G1 X129.562 Y137.99 E.02435
G1 X128.536 Y137.73 E.03728
G1 X136.438 Y141.452 F60000
G1 F31837.476
G1 X137.653 Y142.428 E.04273
G1 X138.581 Y143.28 E.03454
G1 X139.524 Y144.264 E.03737
G1 X140.333 Y145.219 E.03432
G1 X141.085 Y146.221 E.03436
G1 X141.767 Y147.257 E.03401
G1 X142.047 Y147.72 E.01484
G1 X142.181 Y148.078 E.01049
G1 X142.132 Y148.383 E.00846
G1 X141.784 Y148.984 E.01906
G1 X141.267 Y149.784 E.02611
G1 X140.58 Y150.732 E.0321
G1 X139.6 Y151.918 E.04218
G1 X138.802 Y152.765 E.03192
G1 X138.281 Y153.27 E.0199
G1 X137.529 Y153.945 E.02772
G1 X136.474 Y154.79 E.03706
M400
