G1 X25.0 Y7.0 F36000
G1 X275.0 Y7.0
G1 X283.57894736842104 Y6.999999999999999
G1 X284.721369589914 Y7.099948993340735
G1 X285.8290798903004 Y7.396759073776918
G1 X286.86842105263156 Y7.881411817207639
G1 X287.807813221622 Y8.53918129526988
G1 X288.6187134415722 Y9.350081515220136
G1 X289.2764829196345 Y10.289473684210526
G1 X289.76113566306515 Y11.328814846541652
G1 X290.05794574350136 Y12.436525146928089
G1 X290.1578947368421 Y13.578947368421051
G1 X290.05794574350136 Y14.721369589914014
G1 X289.76113566306515 Y15.82907989030045
G1 X289.2764829196345 Y16.868421052631575
G1 X288.6187134415722 Y17.807813221621966
G1 X287.807813221622 Y18.618713441572222
G1 X286.86842105263156 Y19.27648291963446
G1 X285.8290798903004 Y19.761135663065183
G1 X284.721369589914 Y20.057945743501367
G1 X283.57894736842104 Y20.157894736842103
G1 X275.0 Y20.157894736842103
G1 X25.0 Y20.157894736842103
G1 X16.42105263157895 Y20.157894736842103
G1 X15.278630410085986 Y20.257843730182838
G1 X14.17092010969955 Y20.55465381061902
G1 X13.131578947368423 Y21.03930655404974
G1 X12.192186778378032 Y21.697076032111983
G1 X11.381286558427778 Y22.507976252062235
G1 X10.723517080365538 Y23.447368421052627
G1 X10.238864336934816 Y24.486709583383753
G1 X9.942054256498633 Y25.594419883770193
G1 X9.842105263157897 Y26.736842105263154
G1 X9.942054256498633 Y27.879264326756115
G1 X10.238864336934814 Y28.98697462714255
G1 X10.723517080365536 Y30.026315789473678
G1 X11.381286558427778 Y30.96570795846407
G1 X12.192186778378032 Y31.776608178414325
G1 X13.13157894736842 Y32.43437765647656
G1 X14.170920109699551 Y32.919030399907285
G1 X15.278630410085986 Y33.21584048034347
G1 X16.42105263157895 Y33.315789473684205
G1 X25.0 Y33.315789473684205
G1 X275.0 Y33.315789473684205
G1 X283.57894736842104 Y33.31578947368421
G1 X284.721369589914 Y33.41573846702495
G1 X285.8290798903004 Y33.71254854746113
G1 X286.86842105263156 Y34.197201290891854
G1 X287.807813221622 Y34.8549707689541
G1 X288.6187134415722 Y35.66587098890435
G1 X289.2764829196345 Y36.60526315789474
G1 X289.76113566306515 Y37.644604320225866
G1 X290.05794574350136 Y38.7523146206123
G1 X290.1578947368421 Y39.89473684210527
G1 X290.1578947368421 Y39.89473684210526
G1 X290.05794574350136 Y41.037159063598224
G1 X289.76113566306515 Y42.14486936398466
G1 X289.2764829196345 Y43.18421052631579
G1 X288.6187134415722 Y44.123602695306175
G1 X287.807813221622 Y44.93450291525643
G1 X286.86842105263156 Y45.59227239331867
G1 X285.8290798903004 Y46.076925136749395
G1 X284.721369589914 Y46.373735217185576
G1 X283.57894736842104 Y46.473684210526315
G1 X275.0 Y46.473684210526315
G1 X25.0 Y46.473684210526315
G1 X16.42105263157895 Y46.473684210526315
G1 X15.278630410085986 Y46.573633203867054
G1 X14.17092010969955 Y46.870443284303235
G1 X13.131578947368423 Y47.35509602773396
G1 X12.192186778378032 Y48.0128655057962
G1 X11.381286558427778 Y48.823765725746455
G1 X10.723517080365538 Y49.76315789473684
G1 X10.238864336934816 Y50.80249905706797
G1 X9.942054256498633 Y51.910209357454406
G1 X9.842105263157897 Y53.05263157894737
G1 X9.842105263157897 Y53.05263157894736
G1 X9.942054256498633 Y54.19505380044032
G1 X10.238864336934814 Y55.302764100826764
G1 X10.723517080365536 Y56.34210526315789
G1 X11.381286558427778 Y57.28149743214828
G1 X12.192186778378032 Y58.09239765209853
G1 X13.13157894736842 Y58.750167130160776
G1 X14.170920109699551 Y59.2348198735915
G1 X15.278630410085986 Y59.53162995402768
G1 X16.42105263157895 Y59.63157894736842
G1 X25.0 Y59.63157894736842
G1 X275.0 Y59.63157894736842
G1 X283.57894736842104 Y59.63157894736841
G1 X284.721369589914 Y59.73152794070915
G1 X285.8290798903004 Y60.02833802114533
G1 X286.86842105263156 Y60.51299076457605
G1 X287.807813221622 Y61.170760242638295
G1 X288.6187134415722 Y61.98166046258855
G1 X289.2764829196345 Y62.92105263157894
G1 X289.76113566306515 Y63.960393793910065
G1 X290.05794574350136 Y65.0681040942965
G1 X290.1578947368421 Y66.21052631578947
G1 X290.05794574350136 Y67.35294853728243
G1 X289.76113566306515 Y68.46065883766886
G1 X289.2764829196345 Y69.49999999999999
G1 X288.6187134415722 Y70.43939216899038
G1 X287.807813221622 Y71.25029238894064
G1 X286.86842105263156 Y71.90806186700287
G1 X285.8290798903004 Y72.3927146104336
G1 X284.721369589914 Y72.68952469086977
G1 X283.57894736842104 Y72.78947368421052
G1 X275.0 Y72.78947368421052
G1 X25.0 Y72.78947368421052
G1 X16.42105263157895 Y72.78947368421052
G1 X15.278630410085986 Y72.88942267755127
G1 X14.17092010969955 Y73.18623275798744
G1 X13.131578947368423 Y73.67088550141817
G1 X12.192186778378032 Y74.3286549794804
G1 X11.381286558427778 Y75.13955519943066
G1 X10.723517080365538 Y76.07894736842104
G1 X10.238864336934816 Y77.11828853075218
G1 X9.942054256498633 Y78.22599883113861
G1 X9.842105263157897 Y79.36842105263158
G1 X9.942054256498633 Y80.51084327412454
G1 X10.238864336934814 Y81.61855357451097
G1 X10.723517080365536 Y82.6578947368421
G1 X11.381286558427778 Y83.59728690583249
G1 X12.192186778378032 Y84.40818712578275
G1 X13.13157894736842 Y85.06595660384498
G1 X14.170920109699551 Y85.55060934727571
G1 X15.278630410085986 Y85.84741942771188
G1 X16.42105263157895 Y85.94736842105263
G1 X25.0 Y85.94736842105263
G1 X275.0 Y85.94736842105263
G1 X283.57894736842104 Y85.94736842105262
G1 X284.721369589914 Y86.04731741439335
G1 X285.8290798903004 Y86.34412749482954
G1 X286.86842105263156 Y86.82878023826026
G1 X287.807813221622 Y87.4865497163225
G1 X288.6187134415722 Y88.29744993627276
G1 X289.2764829196345 Y89.23684210526315
G1 X289.76113566306515 Y90.27618326759428
G1 X290.05794574350136 Y91.3838935679807
G1 X290.1578947368421 Y92.52631578947367
G1 X290.05794574350136 Y93.66873801096663
G1 X289.76113566306515 Y94.77644831135306
G1 X289.2764829196345 Y95.81578947368419
G1 X288.6187134415722 Y96.75518164267459
G1 X287.807813221622 Y97.56608186262484
G1 X286.86842105263156 Y98.22385134068708
G1 X285.8290798903004 Y98.7085040841178
G1 X284.721369589914 Y99.005314164554
G1 X283.57894736842104 Y99.10526315789473
G1 X275.0 Y99.10526315789473
G1 X25.0 Y99.10526315789473
G1 X16.42105263157895 Y99.10526315789473
G1 X15.278630410085986 Y99.20521215123546
G1 X14.17092010969955 Y99.50202223167165
G1 X13.131578947368423 Y99.98667497510237
G1 X12.192186778378032 Y100.64444445316461
G1 X11.381286558427778 Y101.45534467311487
G1 X10.723517080365538 Y102.39473684210525
G1 X10.238864336934816 Y103.43407800443639
G1 X9.942054256498633 Y104.54178830482282
G1 X9.842105263157897 Y105.68421052631578
G1 X9.942054256498633 Y106.82663274780874
G1 X10.238864336934814 Y107.93434304819517
G1 X10.723517080365536 Y108.9736842105263
G1 X11.381286558427778 Y109.9130763795167
G1 X12.192186778378032 Y110.72397659946695
G1 X13.13157894736842 Y111.38174607752919
G1 X14.170920109699551 Y111.86639882095992
G1 X15.278630410085986 Y112.1632089013961
G1 X16.42105263157895 Y112.26315789473684
G1 X25.0 Y112.26315789473684
G1 X275.0 Y112.26315789473684
G1 X283.57894736842104 Y112.26315789473684
G1 X284.721369589914 Y112.36310688807757
G1 X285.8290798903004 Y112.65991696851376
G1 X286.86842105263156 Y113.14456971194448
G1 X287.807813221622 Y113.80233919000672
G1 X288.6187134415722 Y114.61323940995698
G1 X289.2764829196345 Y115.55263157894737
G1 X289.76113566306515 Y116.5919727412785
G1 X290.05794574350136 Y117.69968304166493
G1 X290.1578947368421 Y118.84210526315789
G1 X290.05794574350136 Y119.98452748465085
G1 X289.76113566306515 Y121.09223778503728
G1 X289.2764829196345 Y122.13157894736841
G1 X288.6187134415722 Y123.0709711163588
G1 X287.807813221622 Y123.88187133630906
G1 X286.86842105263156 Y124.5396408143713
G1 X285.8290798903004 Y125.02429355780203
G1 X284.721369589914 Y125.32110363823821
G1 X283.57894736842104 Y125.42105263157895
G1 X275.0 Y125.42105263157895
G1 X25.0 Y125.42105263157895
G1 X16.42105263157895 Y125.42105263157892
G1 X15.278630410085986 Y125.52100162491965
G1 X14.17092010969955 Y125.81781170535584
G1 X13.131578947368423 Y126.30246444878657
G1 X12.192186778378032 Y126.9602339268488
G1 X11.381286558427778 Y127.77113414679906
G1 X10.723517080365538 Y128.71052631578945
G1 X10.238864336934816 Y129.74986747812056
G1 X9.942054256498633 Y130.85757777850702
G1 X9.842105263157897 Y131.99999999999997
G1 X9.842105263157897 Y132.0
G1 X9.942054256498633 Y133.14242222149295
G1 X10.238864336934814 Y134.2501325218794
G1 X10.723517080365536 Y135.28947368421052
G1 X11.381286558427778 Y136.22886585320092
G1 X12.192186778378032 Y137.03976607315116
G1 X13.13157894736842 Y137.6975355512134
G1 X14.170920109699551 Y138.18218829464413
G1 X15.278630410085986 Y138.47899837508032
G1 X16.42105263157895 Y138.57894736842104
G1 X25.0 Y138.57894736842104
G1 X275.0 Y138.57894736842104
G1 X283.57894736842104 Y138.57894736842104
G1 X284.721369589914 Y138.67889636176176
G1 X285.8290798903004 Y138.97570644219795
G1 X286.86842105263156 Y139.46035918562868
G1 X287.807813221622 Y140.11812866369092
G1 X288.6187134415722 Y140.92902888364117
G1 X289.2764829196345 Y141.86842105263156
G1 X289.76113566306515 Y142.90776221496267
G1 X290.05794574350136 Y144.01547251534913
G1 X290.1578947368421 Y145.15789473684208
G1 X290.1578947368421 Y145.1578947368421
G1 X290.05794574350136 Y146.30031695833506
G1 X289.76113566306515 Y147.40802725872152
G1 X289.2764829196345 Y148.44736842105263
G1 X288.6187134415722 Y149.38676059004302
G1 X287.807813221622 Y150.1976608099933
G1 X286.86842105263156 Y150.85543028805552
G1 X285.8290798903004 Y151.34008303148624
G1 X284.721369589914 Y151.63689311192243
G1 X283.57894736842104 Y151.73684210526315
G1 X275.0 Y151.73684210526315
G1 X25.0 Y151.73684210526315
G1 X16.42105263157895 Y151.73684210526315
G1 X15.278630410085986 Y151.83679109860387
G1 X14.17092010969955 Y152.13360117904006
G1 X13.131578947368423 Y152.61825392247079
G1 X12.192186778378032 Y153.276023400533
G1 X11.381286558427778 Y154.08692362048328
G1 X10.723517080365538 Y155.02631578947367
G1 X10.238864336934816 Y156.06565695180478
G1 X9.942054256498633 Y157.17336725219124
G1 X9.842105263157897 Y158.3157894736842
G1 X9.842105263157897 Y158.31578947368422
G1 X9.942054256498633 Y159.45821169517717
G1 X10.238864336934814 Y160.56592199556363
G1 X10.723517080365536 Y161.60526315789474
G1 X11.381286558427778 Y162.54465532688513
G1 X12.192186778378032 Y163.35555554683538
G1 X13.13157894736842 Y164.01332502489763
G1 X14.170920109699551 Y164.49797776832835
G1 X15.278630410085986 Y164.79478784876454
G1 X16.42105263157895 Y164.89473684210526
G1 X25.0 Y164.89473684210526
G1 X275.0 Y164.89473684210526
G1 X283.57894736842104 Y164.89473684210526
G1 X284.721369589914 Y164.99468583544598
G1 X285.8290798903004 Y165.29149591588217
G1 X286.86842105263156 Y165.7761486593129
G1 X287.807813221622 Y166.43391813737514
G1 X288.6187134415722 Y167.24481835732539
G1 X289.2764829196345 Y168.18421052631578
G1 X289.76113566306515 Y169.2235516886469
G1 X290.05794574350136 Y170.33126198903335
G1 X290.1578947368421 Y171.4736842105263
G1 X290.1578947368421 Y171.47368421052633
G1 X290.05794574350136 Y172.61610643201928
G1 X289.76113566306515 Y173.72381673240574
G1 X289.2764829196345 Y174.76315789473685
G1 X288.6187134415722 Y175.70255006372724
G1 X287.807813221622 Y176.5134502836775
G1 X286.86842105263156 Y177.17121976173974
G1 X285.8290798903004 Y177.65587250517046
G1 X284.721369589914 Y177.95268258560665
G1 X283.57894736842104 Y178.05263157894737
G1 X275.0 Y178.05263157894737
G1 X25.0 Y178.05263157894737
G1 X16.42105263157895 Y178.05263157894734
G1 X15.278630410085986 Y178.15258057228806
G1 X14.17092010969955 Y178.44939065272425
G1 X13.131578947368423 Y178.93404339615498
G1 X12.192186778378032 Y179.59181287421723
G1 X11.381286558427778 Y180.40271309416747
G1 X10.723517080365538 Y181.34210526315786
G1 X10.238864336934816 Y182.38144642548897
G1 X9.942054256498633 Y183.48915672587543
G1 X9.842105263157897 Y184.63157894736838
G1 X9.842105263157897 Y184.6315789473684
G1 X9.942054256498633 Y185.77400116886136
G1 X10.238864336934814 Y186.88171146924782
G1 X10.723517080365536 Y187.92105263157893
G1 X11.381286558427778 Y188.86044480056933
G1 X12.192186778378032 Y189.67134502051957
G1 X13.13157894736842 Y190.32911449858182
G1 X14.170920109699551 Y190.81376724201255
G1 X15.278630410085986 Y191.11057732244873
G1 X16.42105263157895 Y191.21052631578945
G1 X25.0 Y191.21052631578945
G1 X275.0 Y191.21052631578945
G1 X283.57894736842104 Y191.21052631578945
G1 X284.721369589914 Y191.31047530913017
G1 X285.8290798903004 Y191.60728538956636
G1 X286.86842105263156 Y192.0919381329971
G1 X287.807813221622 Y192.7497076110593
G1 X288.6187134415722 Y193.56060783100958
G1 X289.2764829196345 Y194.49999999999997
G1 X289.76113566306515 Y195.53934116233108
G1 X290.05794574350136 Y196.64705146271754
G1 X290.1578947368421 Y197.7894736842105
G1 X290.1578947368421 Y197.78947368421052
G1 X290.05794574350136 Y198.93189590570347
G1 X289.76113566306515 Y200.03960620608993
G1 X289.2764829196345 Y201.07894736842104
G1 X288.6187134415722 Y202.01833953741144
G1 X287.807813221622 Y202.82923975736168
G1 X286.86842105263156 Y203.48700923542393
G1 X285.8290798903004 Y203.97166197885466
G1 X284.721369589914 Y204.26847205929084
G1 X283.57894736842104 Y204.36842105263156
G1 X275.0 Y204.36842105263156
G1 X25.0 Y204.36842105263156
G1 X16.42105263157895 Y204.36842105263156
G1 X15.278630410085986 Y204.46837004597228
G1 X14.17092010969955 Y204.76518012640847
G1 X13.131578947368423 Y205.2498328698392
G1 X12.192186778378032 Y205.90760234790145
G1 X11.381286558427778 Y206.7185025678517
G1 X10.723517080365538 Y207.65789473684208
G1 X10.238864336934816 Y208.6972358991732
G1 X9.942054256498633 Y209.80494619955965
G1 X9.842105263157897 Y210.9473684210526
G1 X9.842105263157897 Y210.94736842105263
G1 X9.942054256498633 Y212.08979064254558
G1 X10.238864336934814 Y213.19750094293204
G1 X10.723517080365536 Y214.23684210526315
G1 X11.381286558427778 Y215.17623427425355
G1 X12.192186778378032 Y215.9871344942038
G1 X13.13157894736842 Y216.64490397226604
G1 X14.170920109699551 Y217.12955671569676
G1 X15.278630410085986 Y217.42636679613295
G1 X16.42105263157895 Y217.52631578947367
G1 X25.0 Y217.52631578947367
G1 X275.0 Y217.52631578947367
G1 X283.57894736842104 Y217.52631578947367
G1 X284.721369589914 Y217.6262647828144
G1 X285.8290798903004 Y217.92307486325058
G1 X286.86842105263156 Y218.4077276066813
G1 X287.807813221622 Y219.06549708474353
G1 X288.6187134415722 Y219.8763973046938
G1 X289.2764829196345 Y220.8157894736842
G1 X289.76113566306515 Y221.8551306360153
G1 X290.05794574350136 Y222.96284093640176
G1 X290.1578947368421 Y224.1052631578947
G1 X290.1578947368421 Y224.10526315789474
G1 X290.05794574350136 Y225.2476853793877
G1 X289.76113566306515 Y226.35539567977415
G1 X289.2764829196345 Y227.39473684210526
G1 X288.6187134415722 Y228.33412901109565
G1 X287.807813221622 Y229.1450292310459
G1 X286.86842105263156 Y229.80279870910815
G1 X285.8290798903004 Y230.28745145253887
G1 X284.721369589914 Y230.58426153297506
G1 X283.57894736842104 Y230.68421052631578
G1 X275.0 Y230.68421052631578
G1 X25.0 Y230.68421052631578
G1 X16.42105263157895 Y230.68421052631578
G1 X15.278630410085986 Y230.7841595196565
G1 X14.17092010969955 Y231.0809696000927
G1 X13.131578947368423 Y231.56562234352342
G1 X12.192186778378032 Y232.22339182158566
G1 X11.381286558427778 Y233.0342920415359
G1 X10.723517080365538 Y233.9736842105263
G1 X10.238864336934816 Y235.0130253728574
G1 X9.942054256498633 Y236.12073567324387
G1 X9.842105263157897 Y237.26315789473682
G1 X9.842105263157897 Y237.26315789473685
G1 X9.942054256498633 Y238.4055801162298
G1 X10.238864336934814 Y239.51329041661626
G1 X10.723517080365536 Y240.55263157894737
G1 X11.381286558427778 Y241.49202374793776
G1 X12.192186778378032 Y242.302923967888
G1 X13.13157894736842 Y242.96069344595026
G1 X14.170920109699551 Y243.44534618938098
G1 X15.278630410085986 Y243.74215626981717
G1 X16.42105263157895 Y243.8421052631579
G1 X25.0 Y243.8421052631579
G1 X275.0 Y243.8421052631579
G1 X283.57894736842104 Y243.8421052631579
G1 X284.721369589914 Y243.9420542564986
G1 X285.8290798903004 Y244.2388643369348
G1 X286.86842105263156 Y244.72351708036553
G1 X287.807813221622 Y245.38128655842775
G1 X288.6187134415722 Y246.19218677837802
G1 X289.2764829196345 Y247.1315789473684
G1 X289.76113566306515 Y248.17092010969952
G1 X290.05794574350136 Y249.27863041008598
G1 X290.1578947368421 Y250.42105263157893
G1 X290.1578947368421 Y250.42105263157896
G1 X290.05794574350136 Y251.5634748530719
G1 X289.76113566306515 Y252.67118515345837
G1 X289.2764829196345 Y253.71052631578948
G1 X288.6187134415722 Y254.64991848477987
G1 X287.807813221622 Y255.46081870473012
G1 X286.86842105263156 Y256.1185881827924
G1 X285.8290798903004 Y256.60324092622307
G1 X284.721369589914 Y256.9000510066593
G1 X283.57894736842104 Y257.0
G1 X275.0 Y257.0
G1 X25.0 Y257.0
G1 X275.0 Y257.0
G1 X283.57894736842104 Y257.0
G1 X284.721369589914 Y256.9000510066593
G1 X285.8290798903004 Y256.60324092622307
G1 X286.86842105263156 Y256.1185881827924
G1 X287.807813221622 Y255.46081870473012
G1 X288.6187134415722 Y254.64991848477987
G1 X289.2764829196345 Y253.71052631578948
G1 X289.76113566306515 Y252.67118515345837
G1 X290.05794574350136 Y251.5634748530719
G1 X290.1578947368421 Y250.42105263157896
G1 X290.1578947368421 Y250.42105263157893
G1 X290.05794574350136 Y249.27863041008598
G1 X289.76113566306515 Y248.17092010969952
G1 X289.2764829196345 Y247.1315789473684
G1 X288.6187134415722 Y246.19218677837802
G1 X287.807813221622 Y245.38128655842775
G1 X286.86842105263156 Y244.72351708036553
G1 X285.8290798903004 Y244.2388643369348
G1 X284.721369589914 Y243.9420542564986
G1 X283.57894736842104 Y243.8421052631579
G1 X275.0 Y243.8421052631579
G1 X25.0 Y243.8421052631579
G1 X16.42105263157895 Y243.8421052631579
G1 X15.278630410085986 Y243.74215626981717
G1 X14.170920109699551 Y243.44534618938098
G1 X13.13157894736842 Y242.96069344595026
G1 X12.192186778378032 Y242.302923967888
G1 X11.381286558427778 Y241.49202374793776
G1 X10.723517080365536 Y240.55263157894737
G1 X10.238864336934814 Y239.51329041661626
G1 X9.942054256498633 Y238.4055801162298
G1 X9.842105263157897 Y237.26315789473685
G1 X9.842105263157897 Y237.26315789473682
G1 X9.942054256498633 Y236.12073567324387
G1 X10.238864336934816 Y235.0130253728574
G1 X10.723517080365538 Y233.9736842105263
G1 X11.381286558427778 Y233.0342920415359
G1 X12.192186778378032 Y232.22339182158566
G1 X13.131578947368423 Y231.56562234352342
G1 X14.17092010969955 Y231.0809696000927
G1 X15.278630410085986 Y230.7841595196565
G1 X16.42105263157895 Y230.68421052631578
G1 X25.0 Y230.68421052631578
G1 X275.0 Y230.68421052631578
G1 X283.57894736842104 Y230.68421052631578
G1 X284.721369589914 Y230.58426153297506
G1 X285.8290798903004 Y230.28745145253887
G1 X286.86842105263156 Y229.80279870910815
G1 X287.807813221622 Y229.1450292310459
G1 X288.6187134415722 Y228.33412901109565
G1 X289.2764829196345 Y227.39473684210526
G1 X289.76113566306515 Y226.35539567977415
G1 X290.05794574350136 Y225.2476853793877
G1 X290.1578947368421 Y224.10526315789474
G1 X290.1578947368421 Y224.1052631578947
G1 X290.05794574350136 Y222.96284093640176
G1 X289.76113566306515 Y221.8551306360153
G1 X289.2764829196345 Y220.8157894736842
G1 X288.6187134415722 Y219.8763973046938
G1 X287.807813221622 Y219.06549708474353
G1 X286.86842105263156 Y218.4077276066813
G1 X285.8290798903004 Y217.92307486325058
G1 X284.721369589914 Y217.6262647828144
G1 X283.57894736842104 Y217.52631578947367
G1 X275.0 Y217.52631578947367
G1 X25.0 Y217.52631578947367
G1 X16.42105263157895 Y217.52631578947367
G1 X15.278630410085986 Y217.42636679613295
G1 X14.170920109699551 Y217.12955671569676
G1 X13.13157894736842 Y216.64490397226604
G1 X12.192186778378032 Y215.9871344942038
G1 X11.381286558427778 Y215.17623427425355
G1 X10.723517080365536 Y214.23684210526315
G1 X10.238864336934814 Y213.19750094293204
G1 X9.942054256498633 Y212.08979064254558
G1 X9.842105263157897 Y210.94736842105263
G1 X9.842105263157897 Y210.9473684210526
G1 X9.942054256498633 Y209.80494619955965
G1 X10.238864336934816 Y208.6972358991732
G1 X10.723517080365538 Y207.65789473684208
G1 X11.381286558427778 Y206.7185025678517
G1 X12.192186778378032 Y205.90760234790145
G1 X13.131578947368423 Y205.2498328698392
G1 X14.17092010969955 Y204.76518012640847
G1 X15.278630410085986 Y204.46837004597228
G1 X16.42105263157895 Y204.36842105263156
G1 X25.0 Y204.36842105263156
G1 X275.0 Y204.36842105263156
G1 X283.57894736842104 Y204.36842105263156
G1 X284.721369589914 Y204.26847205929084
G1 X285.8290798903004 Y203.97166197885466
G1 X286.86842105263156 Y203.48700923542393
G1 X287.807813221622 Y202.82923975736168
G1 X288.6187134415722 Y202.01833953741144
G1 X289.2764829196345 Y201.07894736842104
G1 X289.76113566306515 Y200.03960620608993
G1 X290.05794574350136 Y198.93189590570347
G1 X290.1578947368421 Y197.78947368421052
G1 X290.1578947368421 Y197.7894736842105
G1 X290.05794574350136 Y196.64705146271754
G1 X289.76113566306515 Y195.53934116233108
G1 X289.2764829196345 Y194.49999999999997
G1 X288.6187134415722 Y193.56060783100958
G1 X287.807813221622 Y192.7497076110593
G1 X286.86842105263156 Y192.0919381329971
G1 X285.8290798903004 Y191.60728538956636
G1 X284.721369589914 Y191.31047530913017
G1 X283.57894736842104 Y191.21052631578945
G1 X275.0 Y191.21052631578945
G1 X25.0 Y191.21052631578945
G1 X16.42105263157895 Y191.21052631578945
G1 X15.278630410085986 Y191.11057732244873
G1 X14.170920109699551 Y190.81376724201255
G1 X13.13157894736842 Y190.32911449858182
G1 X12.192186778378032 Y189.67134502051957
G1 X11.381286558427778 Y188.86044480056933
G1 X10.723517080365536 Y187.92105263157893
G1 X10.238864336934814 Y186.88171146924782
G1 X9.942054256498633 Y185.77400116886136
G1 X9.842105263157897 Y184.6315789473684
G1 X9.842105263157897 Y184.63157894736838
G1 X9.942054256498633 Y183.48915672587543
G1 X10.238864336934816 Y182.38144642548897
G1 X10.723517080365538 Y181.34210526315786
G1 X11.381286558427778 Y180.40271309416747
G1 X12.192186778378032 Y179.59181287421723
G1 X13.131578947368423 Y178.93404339615498
G1 X14.17092010969955 Y178.44939065272425
G1 X15.278630410085986 Y178.15258057228806
G1 X16.42105263157895 Y178.05263157894734
G1 X25.0 Y178.05263157894737
G1 X275.0 Y178.05263157894737
G1 X283.57894736842104 Y178.05263157894737
G1 X284.721369589914 Y177.95268258560665
G1 X285.8290798903004 Y177.65587250517046
G1 X286.86842105263156 Y177.17121976173974
G1 X287.807813221622 Y176.5134502836775
G1 X288.6187134415722 Y175.70255006372724
G1 X289.2764829196345 Y174.76315789473685
G1 X289.76113566306515 Y173.72381673240574
G1 X290.05794574350136 Y172.61610643201928
G1 X290.1578947368421 Y171.47368421052633
G1 X290.1578947368421 Y171.4736842105263
G1 X290.05794574350136 Y170.33126198903335
G1 X289.76113566306515 Y169.2235516886469
G1 X289.2764829196345 Y168.18421052631578
G1 X288.6187134415722 Y167.24481835732539
G1 X287.807813221622 Y166.43391813737514
G1 X286.86842105263156 Y165.7761486593129
G1 X285.8290798903004 Y165.29149591588217
G1 X284.721369589914 Y164.99468583544598
G1 X283.57894736842104 Y164.89473684210526
G1 X275.0 Y164.89473684210526
G1 X25.0 Y164.89473684210526
G1 X16.42105263157895 Y164.89473684210526
G1 X15.278630410085986 Y164.79478784876454
G1 X14.170920109699551 Y164.49797776832835
G1 X13.13157894736842 Y164.01332502489763
G1 X12.192186778378032 Y163.35555554683538
G1 X11.381286558427778 Y162.54465532688513
G1 X10.723517080365536 Y161.60526315789474
G1 X10.238864336934814 Y160.56592199556363
G1 X9.942054256498633 Y159.45821169517717
G1 X9.842105263157897 Y158.31578947368422
G1 X9.842105263157897 Y158.3157894736842
G1 X9.942054256498633 Y157.17336725219124
G1 X10.238864336934816 Y156.06565695180478
G1 X10.723517080365538 Y155.02631578947367
G1 X11.381286558427778 Y154.08692362048328
G1 X12.192186778378032 Y153.276023400533
G1 X13.131578947368423 Y152.61825392247079
G1 X14.17092010969955 Y152.13360117904006
G1 X15.278630410085986 Y151.83679109860387
G1 X16.42105263157895 Y151.73684210526315
G1 X25.0 Y151.73684210526315
G1 X275.0 Y151.73684210526315
G1 X283.57894736842104 Y151.73684210526315
G1 X284.721369589914 Y151.63689311192243
G1 X285.8290798903004 Y151.34008303148624
G1 X286.86842105263156 Y150.85543028805552
G1 X287.807813221622 Y150.1976608099933
G1 X288.6187134415722 Y149.38676059004302
G1 X289.2764829196345 Y148.44736842105263
G1 X289.76113566306515 Y147.40802725872152
G1 X290.05794574350136 Y146.30031695833506
G1 X290.1578947368421 Y145.1578947368421
G1 X290.1578947368421 Y145.15789473684208
G1 X290.05794574350136 Y144.01547251534913
G1 X289.76113566306515 Y142.90776221496267
G1 X289.2764829196345 Y141.86842105263156
G1 X288.6187134415722 Y140.92902888364117
G1 X287.807813221622 Y140.11812866369092
G1 X286.86842105263156 Y139.46035918562868
G1 X285.8290798903004 Y138.97570644219795
G1 X284.721369589914 Y138.67889636176176
G1 X283.57894736842104 Y138.57894736842104
G1 X275.0 Y138.57894736842104
G1 X25.0 Y138.57894736842104
G1 X16.42105263157895 Y138.57894736842104
G1 X15.278630410085986 Y138.47899837508032
G1 X14.170920109699551 Y138.18218829464413
G1 X13.13157894736842 Y137.6975355512134
G1 X12.192186778378032 Y137.03976607315116
G1 X11.381286558427778 Y136.22886585320092
G1 X10.723517080365536 Y135.28947368421052
G1 X10.238864336934814 Y134.2501325218794
G1 X9.942054256498633 Y133.14242222149295
G1 X9.842105263157897 Y132.0
G1 X9.842105263157897 Y131.99999999999997
G1 X9.942054256498633 Y130.85757777850702
G1 X10.238864336934816 Y129.74986747812056
G1 X10.723517080365538 Y128.71052631578945
G1 X11.381286558427778 Y127.77113414679906
G1 X12.192186778378032 Y126.9602339268488
G1 X13.131578947368423 Y126.30246444878657
G1 X14.17092010969955 Y125.81781170535584
G1 X15.278630410085986 Y125.52100162491965
G1 X16.42105263157895 Y125.42105263157892
G1 X25.0 Y125.42105263157895
G1 X275.0 Y125.42105263157895
G1 X283.57894736842104 Y125.42105263157895
G1 X284.721369589914 Y125.32110363823821
G1 X285.8290798903004 Y125.02429355780203
G1 X286.86842105263156 Y124.5396408143713
G1 X287.807813221622 Y123.88187133630906
G1 X288.6187134415722 Y123.0709711163588
G1 X289.2764829196345 Y122.13157894736841
G1 X289.76113566306515 Y121.09223778503728
G1 X290.05794574350136 Y119.98452748465085
G1 X290.1578947368421 Y118.84210526315789
G1 X290.05794574350136 Y117.69968304166493
G1 X289.76113566306515 Y116.5919727412785
G1 X289.2764829196345 Y115.55263157894737
G1 X288.6187134415722 Y114.61323940995698
G1 X287.807813221622 Y113.80233919000672
G1 X286.86842105263156 Y113.14456971194448
G1 X285.8290798903004 Y112.65991696851376
G1 X284.721369589914 Y112.36310688807757
G1 X283.57894736842104 Y112.26315789473684
G1 X275.0 Y112.26315789473684
G1 X25.0 Y112.26315789473684
G1 X16.42105263157895 Y112.26315789473684
G1 X15.278630410085986 Y112.1632089013961
G1 X14.170920109699551 Y111.86639882095992
G1 X13.13157894736842 Y111.38174607752919
G1 X12.192186778378032 Y110.72397659946695
G1 X11.381286558427778 Y109.9130763795167
G1 X10.723517080365536 Y108.9736842105263
G1 X10.238864336934814 Y107.93434304819517
G1 X9.942054256498633 Y106.82663274780874
G1 X9.842105263157897 Y105.68421052631578
G1 X9.942054256498633 Y104.54178830482282
G1 X10.238864336934816 Y103.43407800443639
G1 X10.723517080365538 Y102.39473684210525
G1 X11.381286558427778 Y101.45534467311487
G1 X12.192186778378032 Y100.64444445316461
G1 X13.131578947368423 Y99.98667497510237
G1 X14.17092010969955 Y99.50202223167165
G1 X15.278630410085986 Y99.20521215123546
G1 X16.42105263157895 Y99.10526315789473
G1 X25.0 Y99.10526315789473
G1 X275.0 Y99.10526315789473
G1 X283.57894736842104 Y99.10526315789473
G1 X284.721369589914 Y99.005314164554
G1 X285.8290798903004 Y98.7085040841178
G1 X286.86842105263156 Y98.22385134068708
G1 X287.807813221622 Y97.56608186262484
G1 X288.6187134415722 Y96.75518164267459
G1 X289.2764829196345 Y95.81578947368419
G1 X289.76113566306515 Y94.77644831135306
G1 X290.05794574350136 Y93.66873801096663
G1 X290.1578947368421 Y92.52631578947367
G1 X290.05794574350136 Y91.3838935679807
G1 X289.76113566306515 Y90.27618326759428
G1 X289.2764829196345 Y89.23684210526315
G1 X288.6187134415722 Y88.29744993627276
G1 X287.807813221622 Y87.4865497163225
G1 X286.86842105263156 Y86.82878023826026
G1 X285.8290798903004 Y86.34412749482954
G1 X284.721369589914 Y86.04731741439335
G1 X283.57894736842104 Y85.94736842105262
G1 X275.0 Y85.94736842105263
G1 X25.0 Y85.94736842105263
G1 X16.42105263157895 Y85.94736842105263
G1 X15.278630410085986 Y85.84741942771188
G1 X14.170920109699551 Y85.55060934727571
G1 X13.13157894736842 Y85.06595660384498
G1 X12.192186778378032 Y84.40818712578275
G1 X11.381286558427778 Y83.59728690583249
G1 X10.723517080365536 Y82.6578947368421
G1 X10.238864336934814 Y81.61855357451097
G1 X9.942054256498633 Y80.51084327412454
G1 X9.842105263157897 Y79.36842105263158
G1 X9.942054256498633 Y78.22599883113861
G1 X10.238864336934816 Y77.11828853075218
G1 X10.723517080365538 Y76.07894736842104
G1 X11.381286558427778 Y75.13955519943066
G1 X12.192186778378032 Y74.3286549794804
G1 X13.131578947368423 Y73.67088550141817
G1 X14.17092010969955 Y73.18623275798744
G1 X15.278630410085986 Y72.88942267755127
G1 X16.42105263157895 Y72.78947368421052
G1 X25.0 Y72.78947368421052
G1 X275.0 Y72.78947368421052
G1 X283.57894736842104 Y72.78947368421052
G1 X284.721369589914 Y72.68952469086977
G1 X285.8290798903004 Y72.3927146104336
G1 X286.86842105263156 Y71.90806186700287
G1 X287.807813221622 Y71.25029238894064
G1 X288.6187134415722 Y70.43939216899038
G1 X289.2764829196345 Y69.49999999999999
G1 X289.76113566306515 Y68.46065883766886
G1 X290.05794574350136 Y67.35294853728243
G1 X290.1578947368421 Y66.21052631578947
G1 X290.05794574350136 Y65.0681040942965
G1 X289.76113566306515 Y63.960393793910065
G1 X289.2764829196345 Y62.92105263157894
G1 X288.6187134415722 Y61.98166046258855
G1 X287.807813221622 Y61.170760242638295
G1 X286.86842105263156 Y60.51299076457605
G1 X285.8290798903004 Y60.02833802114533
G1 X284.721369589914 Y59.73152794070915
G1 X283.57894736842104 Y59.63157894736841
G1 X275.0 Y59.63157894736842
G1 X25.0 Y59.63157894736842
G1 X16.42105263157895 Y59.63157894736842
G1 X15.278630410085986 Y59.53162995402768
G1 X14.170920109699551 Y59.2348198735915
G1 X13.13157894736842 Y58.750167130160776
G1 X12.192186778378032 Y58.09239765209853
G1 X11.381286558427778 Y57.28149743214828
G1 X10.723517080365536 Y56.34210526315789
G1 X10.238864336934814 Y55.302764100826764
G1 X9.942054256498633 Y54.19505380044032
G1 X9.842105263157897 Y53.05263157894736
G1 X9.842105263157897 Y53.05263157894737
G1 X9.942054256498633 Y51.910209357454406
G1 X10.238864336934816 Y50.80249905706797
G1 X10.723517080365538 Y49.76315789473684
G1 X11.381286558427778 Y48.823765725746455
G1 X12.192186778378032 Y48.0128655057962
G1 X13.131578947368423 Y47.35509602773396
G1 X14.17092010969955 Y46.870443284303235
G1 X15.278630410085986 Y46.573633203867054
G1 X16.42105263157895 Y46.473684210526315
G1 X25.0 Y46.473684210526315
G1 X275.0 Y46.473684210526315
G1 X283.57894736842104 Y46.473684210526315
G1 X284.721369589914 Y46.373735217185576
G1 X285.8290798903004 Y46.076925136749395
G1 X286.86842105263156 Y45.59227239331867
G1 X287.807813221622 Y44.93450291525643
G1 X288.6187134415722 Y44.123602695306175
G1 X289.2764829196345 Y43.18421052631579
G1 X289.76113566306515 Y42.14486936398466
G1 X290.05794574350136 Y41.037159063598224
G1 X290.1578947368421 Y39.89473684210526
G1 X290.1578947368421 Y39.89473684210527
G1 X290.05794574350136 Y38.7523146206123
G1 X289.76113566306515 Y37.644604320225866
G1 X289.2764829196345 Y36.60526315789474
G1 X288.6187134415722 Y35.66587098890435
G1 X287.807813221622 Y34.8549707689541
G1 X286.86842105263156 Y34.197201290891854
G1 X285.8290798903004 Y33.71254854746113
G1 X284.721369589914 Y33.41573846702495
G1 X283.57894736842104 Y33.31578947368421
G1 X275.0 Y33.315789473684205
G1 X25.0 Y33.315789473684205
G1 X16.42105263157895 Y33.315789473684205
G1 X15.278630410085986 Y33.21584048034347
G1 X14.170920109699551 Y32.919030399907285
G1 X13.13157894736842 Y32.43437765647656
G1 X12.192186778378032 Y31.776608178414325
G1 X11.381286558427778 Y30.96570795846407
G1 X10.723517080365536 Y30.026315789473678
G1 X10.238864336934814 Y28.98697462714255
G1 X9.942054256498633 Y27.879264326756115
G1 X9.842105263157897 Y26.736842105263154
G1 X9.942054256498633 Y25.594419883770193
G1 X10.238864336934816 Y24.486709583383753
G1 X10.723517080365538 Y23.447368421052627
G1 X11.381286558427778 Y22.507976252062235
G1 X12.192186778378032 Y21.697076032111983
G1 X13.131578947368423 Y21.03930655404974
G1 X14.17092010969955 Y20.55465381061902
G1 X15.278630410085986 Y20.257843730182838
G1 X16.42105263157895 Y20.157894736842103
G1 X25.0 Y20.157894736842103
G1 X275.0 Y20.157894736842103
G1 X283.57894736842104 Y20.157894736842103
G1 X284.721369589914 Y20.057945743501367
G1 X285.8290798903004 Y19.761135663065183
G1 X286.86842105263156 Y19.27648291963446
G1 X287.807813221622 Y18.618713441572222
G1 X288.6187134415722 Y17.807813221621966
G1 X289.2764829196345 Y16.868421052631575
G1 X289.76113566306515 Y15.82907989030045
G1 X290.05794574350136 Y14.721369589914014
G1 X290.1578947368421 Y13.578947368421051
G1 X290.05794574350136 Y12.436525146928089
G1 X289.76113566306515 Y11.328814846541652
G1 X289.2764829196345 Y10.289473684210526
G1 X288.6187134415722 Y9.350081515220136
G1 X287.807813221622 Y8.53918129526988
G1 X286.86842105263156 Y7.881411817207639
G1 X285.8290798903004 Y7.396759073776918
G1 X284.721369589914 Y7.099948993340735
G1 X283.57894736842104 Y6.999999999999999
G1 X275.0 Y7.0
G1 X25.0 Y7.0
