M83 ; use relative distances for extrusion
G1 F5932.273
G1 X109.165 Y105.572 E.00497
G1 X110.285 Y105.144 E.04033
G1 X111.146 Y104.936 E.0298
G1 X112.067 Y104.824 E.0312
G1 X113.272 Y104.857 E.04058
G1 X114.153 Y104.996 E.02999
G1 X115.05 Y105.247 E.03133
G1 X116.22 Y105.77 E.04313
G1 X117.221 Y106.439 E.0405
G1 X117.893 Y107.026 E.02999
G1 X118.471 Y107.663 E.02897
G1 X118.975 Y108.362 E.02899
G1 X119.564 Y109.48 E.04249
G1 X119.868 Y110.317 E.02994
G1 X120.082 Y111.223 E.03133
G1 X120.182 Y112.413 E.04018
G1 X120.142 Y113.302 E.02994
G1 X119.993 Y114.222 E.03133
G1 X119.63 Y115.359 E.04018
G1 X119.254 Y116.166 E.02994
G1 X118.801 Y116.899 E.02899
G1 X118.268 Y117.577 E.02899
G1 X117.664 Y118.191 E.02899
G1 X116.994 Y118.733 E.02899
G1 X115.835 Y119.428 E.04547
G1 X114.715 Y119.856 E.04033
G1 X113.788 Y120.08 E.03209
G1 X112.588 Y120.182 E.04052
G1 X111.698 Y120.142 E.02996
G1 X110.847 Y120.004 E.029
G1 X110.017 Y119.772 E.02899
G1 X109.219 Y119.448 E.02899
G1 X108.4 Y119.004 E.03133
G1 X107.376 Y118.233 E.04314
G1 X106.548 Y117.358 E.04052
G1 X106.025 Y116.638 E.02994
G1 X105.436 Y115.52 E.04249
G1 X105.132 Y114.683 E.02994
G1 X104.934 Y113.845 E.02899
G1 X104.831 Y112.989 E.02899
G1 X104.825 Y112.128 E.02899
G1 X104.922 Y111.201 E.03133
G1 X105.22 Y110.045 E.04018
G1 X105.552 Y109.219 E.02994
G1 X105.882 Y108.608 E.02337
G1 X106.042 Y108.339 E.01053
G1 X106.714 Y107.446 E.03759
G1 X107.336 Y106.809 E.02994
G1 X108.06 Y106.223 E.03133
G1 X109.003 Y105.667 E.03684
G1 X109.249 Y106.006 F9000
G1 F5932.273
G1 X109.346 Y105.949 E.00379
G1 X110.434 Y105.533 E.03915
G1 X111.239 Y105.343 E.02785
G1 X112.087 Y105.242 E.02873
G1 X113.261 Y105.273 E.03951
G1 X114.083 Y105.407 E.02801
G1 X114.908 Y105.64 E.02885
G1 X116.018 Y106.137 E.04089
G1 X116.989 Y106.786 E.03932
G1 X117.615 Y107.337 E.02803
G1 X118.16 Y107.941 E.0274
G1 X118.635 Y108.604 E.02742
G1 X119.193 Y109.671 E.04053
G1 X119.474 Y110.454 E.02798
G1 X119.669 Y111.289 E.02885
G1 X119.766 Y112.448 E.03911
G1 X119.726 Y113.279 E.02798
G1 X119.586 Y114.125 E.02885
G1 X119.233 Y115.233 E.03911
G1 X118.878 Y115.985 E.02798
G1 X118.447 Y116.677 E.02742
G1 X117.942 Y117.317 E.02742
G1 X117.369 Y117.896 E.02742
G1 X116.734 Y118.407 E.02742
G1 X115.654 Y119.051 E.04232
G1 X114.566 Y119.467 E.03915
G1 X113.72 Y119.667 E.02926
G1 X112.552 Y119.766 E.03942
G1 X111.721 Y119.726 E.02799
G1 X110.917 Y119.593 E.02743
G1 X110.133 Y119.371 E.02742
G1 X109.378 Y119.063 E.02742
G1 X108.626 Y118.652 E.02885
G1 X107.655 Y117.921 E.04089
G1 X106.851 Y117.071 E.03934
G1 X106.365 Y116.396 E.02798
G1 X105.807 Y115.329 E.04053
G1 X105.526 Y114.546 E.02798
G1 X105.341 Y113.752 E.02742
G1 X105.246 Y112.943 E.02742
G1 X105.242 Y112.128 E.02742
G1 X105.334 Y111.275 E.02885
G1 X105.624 Y110.149 E.03911
G1 X105.937 Y109.378 E.02798
G1 X106.349 Y108.625 E.0289
M73 P20 R46
G1 X107.047 Y107.697 E.03906
G1 X107.631 Y107.104 E.02798
G1 X108.299 Y106.566 E.02885
G1 X109.215 Y106.026 E.03577
G1 X109.472 Y106.384 F9000
