M83 ; use relative distances for extrusion

;WIDTH:0.599618
G1 F4444.468
G1 X126.345 Y125.457 E.01392
G1 X126.345 Y126.345 E.03985
G1 X125.788 Y126.345 E.025
G1 X125.788 Y125.457 E.03985
G1 X125.695 Y125.249 E.01025
;WIDTH:0.553079
G1 F4849.919
G1 X125.602 Y125.04 E.00939
;WIDTH:0.506539
G1 F5336.771
G1 X125.51 Y124.831 E.00853
;WIDTH:0.459999
G1 F5932.273
G1 X125.076 Y124.495 E.01846
G1 X124.675 Y124.414 E.01376
G1 X123.476 Y124.437 E.04034
G1 X123.134 Y124.576 E.01242
G1 X122.874 Y124.81 E.01179
G1 X122.795 Y125.037 E.00809
G1 X122.715 Y124.81 E.00809
G1 X122.455 Y124.576 E.01179
G1 X122.212 Y124.463 E.00901
G1 X121.898 Y124.414 E.01069
G1 X120.819 Y124.426 E.03628
G1 X120.543 Y124.509 E.00969
G1 X120.215 Y124.746 E.01363
G1 X120.004 Y125.082 E.01336
G1 X119.934 Y125.457 E.01282
G1 X119.934 Y126.414 E.0322
G1 X98.586 Y126.414 E.71816
G1 X98.586 Y118.559 E.26424
G1 X99.543 Y118.559 E.0322
G1 X99.871 Y118.507 E.01116
G1 X100.08 Y118.41 E.00777
G1 X100.302 Y118.231 E.00959
G1 X100.506 Y117.916 E.01265
G1 X100.586 Y117.517 E.01368
G1 X100.579 Y107.122 E.34968
G1 X100.452 Y106.731 E.01383
G1 X100.204 Y106.435 E.01297
G1 X99.862 Y106.249 E.01313
G1 X99.543 Y106.199 E.01085
G1 X98.586 Y106.199 E.0322
G1 X98.586 Y98.586 E.2561
