G90
G1 X0 Y0 F9000
G1 X40 Y0
G1 X40 Y40
G1 X0 Y40
G1 X0 Y0
; faceted arc — set [arc_fit] min_run_facets to 3 and the fitter
; fuses these 24 segments into one true arc (fine facets: the fit
; budget derives from square_corner_velocity² / max_accel)
G0 X65 Y20
G1 X64.989 Y20.327
G1 X64.957 Y20.653
G1 X64.904 Y20.975
G1 X64.830 Y21.294
G1 X64.735 Y21.607
G1 X64.619 Y21.913
G1 X64.484 Y22.211
G1 X64.330 Y22.500
G1 X64.157 Y22.778
G1 X63.967 Y23.044
G1 X63.759 Y23.297
G1 X63.536 Y23.536
G1 X63.297 Y23.759
G1 X63.044 Y23.967
G1 X62.778 Y24.157
G1 X62.500 Y24.330
G1 X62.211 Y24.484
G1 X61.913 Y24.619
G1 X61.607 Y24.735
G1 X61.294 Y24.830
G1 X60.975 Y24.904
G1 X60.653 Y24.957
G1 X60.327 Y24.989
G1 X60.000 Y25.000
